id,franchise_id,franchise_name,restaurant_franchise_id,country,city,lat,lng,geohash
257698037796,37,Cafe Crepe,26468,IT,Milan,45.533,9.171,11100000
25769803831,56,The Waffle House,72230,FR,Paris,48.873,2.305,11100000
85899345988,69,Dragonfly Cafe,18952,NL,Amsterdam,52.392,4.911,11100000
111669149758,63,Cafe Paris,84488,NL,Amsterdam Zuidoost,52.310,4.942,11100000
163208757268,21,The Lazy Daisy,96638,US,Columbus,40.115,-83.015,10011010
154618822662,7,Cafe Roma,41484,US,Tatum,33.382,-103.395,10001101
163208757290,43,The Food House,96638,IT,Milan,45.474,9.224,11100000
266287972361,10,The Golden Spoon,11263,US,Marina,36.684,-121.792,10001110
171798691894,55,The Steak House,65939,GB,London,51.502,0.000,10110101
197568495640,25,The Cozy Cafe,24784,US,Oskaloosa,41.324,-92.646,10001111
163208757306,59,Azalea Cafe,96638,FR,Paris,48.871,2.294,11100000
42,43,The Food House,47732,AT,Vienna,48.163,16.340,11100000
23,24,The Fisherman's Catch,47732,ES,Barcelona,41.396,2.163,11001010
51539607572,21,The Lazy Daisy,6934,ES,Barcelona,41.387,2.174,11001010
257698037775,16,The Spice Tree,26468,US,Morgantown,39.631,-79.956,10011010
188978561036,13,The Firehouse,3642,US,Atlantic Beach,34.701,-76.747,10011010
77309411367,40,Crimson Cafe,78190,AT,Vienna,48.213,16.357,11100000
128849018902,23,The Hungry Pig,5679,ES,Barcelona,41.389,2.171,11001010
223338299392,1,Savoria,36937,US,Washington,13.368,100.987,11010010
103079215115,12,The Wooden Spoon,4340,US,Blythewood,34.214,-80.974,10011010
77309411392,65,Chef's Corner,78190,GB,Paddington,51.514,-0.177,10110101
25769803840,65,Chef's Corner,72230,GB,London,51.525,-0.077,10110101
8589934620,29,The Olive Branch,12630,US,Baraboo,43.479,-89.769,10011010
154618822685,30,The Wine Cellar,41484,US,Auburn,42.200,-71.841,10011010
249108103202,35,Basilica Bistro,55897,ES,Barcelona,41.396,2.182,11001010
128849018940,61,Blue Water Bistro,5679,FR,Paris,48.879,2.285,11100000
214748364840,41,The Daily Bread,92040,AT,Vienna,48.195,16.383,11100000
34359738417,50,The Pancake House,50333,US,Irving,48.869,2.283,11100000
257698037779,20,The Brasserie,26468,US,Laramie,41.325,-105.617,10001111
120259084320,33,The Blue Elephant,59829,US,Portland,47.939,1.893,11100000
111669149715,20,The Brasserie,84488,US,Willows,39.527,-122.212,10001110
111669149699,4,The Blue Plate,84488,US,El Paso,31.776,-106.433,10001101
60129542195,52,The Red Door,71555,FR,Paris,48.872,2.326,11100000
137438953522,51,The Pizzeria,11038,GB,London,51.501,-0.023,10110101
214748364856,57,The Yellow Submarine,92040,FR,Paris,48.865,2.347,11100000
146028888115,52,The Red Door,70611,AT,Vienna,48.187,16.302,11100000
214748364857,58,A Tasty Bite,92040,FR,Paris,48.866,2.332,11100000
223338299406,15,The Pearl Kitchen,36937,US,Columbus,40.007,-82.865,10011010
68719476798,63,Cafe Paris,77517,NL,Amsterdam,52.358,4.845,11100000
34359738419,52,The Red Door,50333,FR,Paris,48.873,2.316,11100000
137438953477,6,The Daily Grind,11038,US,Oklahoma City,35.480,-97.526,10001111
137438953518,47,The Juicy Burger,11038,FR,Paris,48.875,2.343,11100000
266287972367,16,The Spice Tree,11263,US,Bordentown,40.119,-74.752,10011010
180388626465,34,The Tasty Treat,7531,IT,Milan,45.491,9.239,11100000
51539607598,47,The Juicy Burger,6934,FR,Paris,48.869,2.352,11100000
240518168585,10,The Golden Spoon,93164,US,Phoenix,33.625,-112.114,10001101
146028888079,16,The Spice Tree,70611,US,Joplin,37.052,-94.478,10001111
146028888120,57,The Yellow Submarine,70611,AT,Vienna,48.231,16.355,11100000
68719476761,26,The Silver Spoon,77517,US,Eugene,44.050,-123.087,10001110
77309411332,5,The Hungry Hippo,78190,US,Laurel,31.694,-89.133,10011000
128849018935,56,The Waffle House,5679,FR,Paris,48.869,2.334,11100000
266287972399,48,The Local Cafe,11263,FR,Paris,48.845,2.324,11100000
103079215140,37,Cafe Crepe,4340,US,West Springfield,42.121,-72.626,10011010
223338299429,38,Cafe Viva,36937,FR,Paris,48.856,2.324,11100000
266287972426,75,Greenhouse Cafe,11263,GB,Paddington,51.512,-0.180,10110101
154618822686,31,Bistro 42,41484,US,Detroit,42.335,-83.041,10011010
137438953492,21,The Lazy Daisy,11038,US,Port Sanilac,43.429,-82.542,10011010
188978561087,64,Chateau de Cuisine,3642,FR,Paris,48.873,2.307,11100000
171798691893,54,The Spice House,65939,GB,London,51.500,-0.180,10110101
240518168627,52,The Red Door,93164,AT,Vienna,48.198,16.336,11100000
249108103204,37,Cafe Crepe,55897,US,Cambridge,42.373,-71.081,10011010
68719476786,51,The Pizzeria,77517,GB,London,51.493,-0.215,10110101
85899345925,6,The Daily Grind,18952,US,West Monroe,32.510,-92.169,10001101
180388626446,15,The Pearl Kitchen,7531,US,Stevens,40.246,-76.246,10011010
197568495645,30,The Wine Cellar,24784,ES,Barcelona,41.396,2.155,11001010
214748364837,38,Cafe Viva,92040,US,Portland,45.521,-122.683,10100100
171798691895,56,The Waffle House,65939,GB,London,51.507,-0.005,10110101
154618822675,20,The Brasserie,41484,US,Mahanoy City,40.814,-76.134,10011010
103079215168,65,Chef's Corner,4340,GB,London,51.506,-0.149,10110101
188978561049,26,The Silver Spoon,3642,ES,Barcelona,41.378,2.114,11001010
17179869192,9,The Grill House,10902,US,Joshua Tree,34.135,-116.326,10001110
223338299402,11,The Flaming Wok,36937,US,Metropolis,37.161,-88.703,10011010
240518168598,23,The Hungry Pig,93164,US,Elko,40.834,-115.761,10001110
249108103194,27,The Corner Cafe,55897,ES,Barcelona,41.371,2.182,11001010
8589934605,14,The Gourmet Garden,12630,US,Annapolis,38.976,-76.548,10011010
51539607568,17,The Rustic Table,6934,US,Longmont,40.158,-104.982,10001111
249108103181,14,The Gourmet Garden,55897,US,Goodlettsville,36.323,-86.713,10011010
34359738421,54,The Spice House,50333,FR,Paris,48.875,2.294,11100000
21,22,The Red Pepper,47732,ES,Barcelona,41.386,2.168,11001010
223338299407,16,The Spice Tree,36937,US,Newark,40.057,-82.410,10011010
25769803832,57,The Yellow Submarine,72230,FR,Paris,48.878,2.286,11100000
146028888134,71,Fire and Spice,70611,FR,Paris,48.880,2.328,11100000
240518168633,58,A Tasty Bite,93164,FR,Paris,48.852,2.384,11100000
8589934603,12,The Wooden Spoon,12630,US,Wittman,38.797,-76.305,10011010
42949672993,34,The Tasty Treat,89646,US,Austin,43.666,-92.993,10001111
206158430240,33,The Blue Elephant,53370,US,Crystal Lake,42.228,-88.297,10011010
85899345936,17,The Rustic Table,18952,US,Carson City,39.143,-119.768,10001110
180388626500,69,Dragonfly Cafe,7531,NL,Amsterdam,52.362,4.878,11100000
8589934614,23,The Hungry Pig,12630,ES,Barcelona,41.381,2.177,11001010
42949672986,27,The Corner Cafe,89646,ES,Barcelona,41.408,2.218,11001010
197568495641,26,The Silver Spoon,24784,US,Princeton,41.368,-89.457,10011010
17179869233,50,The Pancake House,10902,FR,Paris,48.832,2.387,11100000
85899345962,43,The Food House,18952,AT,Vienna,48.208,16.370,11100000
206158430294,87,The Red Hen,53370,NL,Amsterdam,52.361,4.883,11100000
240518168638,63,Cafe Paris,93164,FR,Paris,48.869,2.307,11100000
103079215147,44,The French Kitchen,4340,US,Lake Worth,45.055,-0.658,10110101
60129542169,26,The Silver Spoon,71555,ES,Barcelona,41.376,2.167,11001010
120259084326,39,Cinnamon Grill,59829,FR,Paris,48.850,2.347,11100000
42949673001,42,The Daily Scoop,89646,US,Neihart,46.934,-110.736,10100101
146028888133,70,Earth and Vine,70611,FR,Paris,48.876,2.304,11100000
111669149710,15,The Pearl Kitchen,84488,US,Watsonville,36.917,-121.761,10001110
25769803804,29,The Olive Branch,72230,US,Plainville,41.672,-72.837,10011010
146028888104,41,The Daily Bread,70611,US,Aberdeen,45.459,-98.428,10100101
171798691876,37,Cafe Crepe,65939,AT,Vienna,48.194,16.362,11100000
240518168615,40,Crimson Cafe,93164,US,Casper,42.811,-106.399,10001111
68719476788,53,The Red Rooster,77517,GB,London,51.513,-0.183,10110101
188978561099,76,Happy Hour Cafe,3642,GB,London,51.523,-0.104,10110101
249108103172,5,The Hungry Hippo,55897,US,Abilene,32.404,-99.765,10001101
249108103229,62,Cafe Luminoso,55897,FR,Paris,48.897,2.385,11100000
42949672996,37,Cafe Crepe,89646,IT,Milan,45.441,9.192,11100000
34359738398,31,Bistro 42,50333,US,Manistique,45.952,-86.228,10110000
249108103198,31,Bistro 42,55897,ES,Barcelona,41.388,2.173,11001010
188978561098,75,Greenhouse Cafe,3642,GB,London,51.523,-0.125,10110101
257698037766,7,Cafe Roma,26468,US,Glendale,33.621,-112.186,10001101
34359738400,33,The Blue Elephant,50333,AT,Vienna,48.198,16.369,11100000
257698037781,22,The Red Pepper,26468,ES,Barcelona,41.389,2.156,11001010
266287972364,13,The Firehouse,11263,US,Cripple Creek,38.747,-105.174,10001111
163208757313,66,City Bites,96638,GB,London,51.502,-0.023,10110101
154618822726,71,Fire and Spice,41484,GB,London,51.506,-0.072,10110101
240518168604,29,The Olive Branch,93164,ES,Barcelona,41.387,2.160,11001010
197568495690,75,Greenhouse Cafe,24784,GB,London,51.491,-0.193,10110101
266287972428,77,Harvest Kitchen,11263,GB,London,51.524,-0.161,10110101
68719476762,27,The Corner Cafe,77517,US,Twin Mountain,44.267,-71.561,10011010
25769803803,28,The Spicy Pickle,72230,ES,Barcelona,41.425,2.121,11001010
223338299441,50,The Pancake House,36937,GB,London,51.502,-0.163,10110101
257698037774,15,The Pearl Kitchen,26468,US,Caseyville,38.642,-90.020,10001111
188978561088,65,Chef's Corner,3642,FR,Paris,48.873,2.345,11100000
266287972377,26,The Silver Spoon,11263,ES,Barcelona,41.395,2.163,11001010
154618822664,9,The Grill House,41484,US,Payson,34.255,-111.274,10001111
17179869185,2,Bella Cucina,10902,US,Carrizo Springs,28.546,-99.845,10001101
17179869204,21,The Lazy Daisy,10902,US,Indianapolis,39.701,-86.084,10011010
120259084331,44,The French Kitchen,59829,FR,Paris,48.870,2.300,11100000
51539607602,51,The Pizzeria,6934,FR,Paris,48.882,2.332,11100000
154618822663,8,The Green Olive,41484,US,Irvine,33.680,-117.837,10001100
42949672994,35,Basilica Bistro,89646,US,Springfield,44.086,-123.042,10001110
68719476778,43,The Food House,77517,US,Carrollton,48.854,2.388,11100000
163208757301,54,The Spice House,96638,FR,Paris,48.857,2.381,11100000
60129542193,50,The Pancake House,71555,FR,Paris,48.867,2.288,11100000
77309411390,63,Cafe Paris,78190,GB,London,51.512,-0.071,10110101
77309411328,1,Savoria,78190,US,Virginia Beach,22.875,-109.931,10001101
188978561079,56,The Waffle House,3642,FR,Paris,48.842,2.302,11100000
197568495683,68,Delish Cafe,24784,FR,Paris,48.876,2.346,11100000
171798691852,13,The Firehouse,65939,US,Strasburg,39.987,-76.176,10011010
103079215111,8,The Green Olive,4340,US,Tucson,32.125,-110.935,10001101
266287972356,5,The Hungry Hippo,11263,US,Bossier City,32.523,-93.702,10001101
188978561078,55,The Steak House,3642,FR,Paris,48.841,2.299,11100000
180388626452,21,The Lazy Daisy,7531,ES,Barcelona,41.393,2.146,11001010
154618822704,49,The Olive Tree,41484,AT,Vienna,48.199,16.353,11100000
206158430213,6,The Daily Grind,53370,US,Ferriday,31.616,-91.528,10001101
85899345949,30,The Wine Cellar,18952,US,Battle Creek,42.312,-85.192,10011010
180388626462,31,Bistro 42,7531,US,Lincoln City,44.985,-124.014,10001110
266287972414,63,Cafe Paris,11263,FR,Paris,48.879,2.296,11100000
154618822693,38,Cafe Viva,41484,IT,Milan,45.474,9.207,11100000
206158430292,85,The Plum Cafe,53370,NL,Amsterdam Zuidoost,52.310,4.947,11100000
171798691873,34,The Tasty Treat,65939,IT,Milan,45.501,9.221,11100000
60129542148,5,The Hungry Hippo,71555,US,Lake Forest,33.628,-117.716,10001100
17179869200,17,The Rustic Table,10902,US,Norcross,37.982,-1.124,10011111
34359738410,43,The Food House,50333,FR,Paris,48.849,2.340,11100000
206158430227,20,The Brasserie,53370,US,Clifton,39.564,2.626,11001010
17179869225,42,The Daily Scoop,10902,US,Vashon,47.383,-122.408,10100100
51539607603,52,The Red Door,6934,GB,London,51.505,-0.213,10110101
146028888107,44,The French Kitchen,70611,IT,Milan,45.476,9.206,11100000
137438953515,44,The French Kitchen,11038,FR,Paris,48.866,2.290,11100000
25769803802,27,The Corner Cafe,72230,ES,Barcelona,41.404,2.191,11001010
163208757314,67,Crimson and Clover,96638,GB,London,51.508,0.023,11100000
137438953503,32,The Orange Peeler,11038,IT,Milan,45.507,9.197,11100000
77309411364,37,Cafe Crepe,78190,IT,Milan,45.527,9.213,11100000
85899345948,29,The Olive Branch,18952,US,Cedar Rapids,41.946,-91.672,10001111
137438953502,31,Bistro 42,11038,IT,Milan,45.487,9.224,11100000
128849018889,10,The Golden Spoon,5679,US,Williamsburg,37.288,-76.722,10011010
94489280546,35,Basilica Bistro,95399,US,Worthington,43.636,-95.622,10001111
163208757275,28,The Spicy Pickle,96638,ES,Barcelona,41.381,2.146,11001010
42949673030,71,Fire and Spice,89646,NL,Amsterdam,52.358,4.899,11100000
249108103173,6,The Daily Grind,55897,US,Glendale,33.539,-112.183,10001101
14,15,The Pearl Kitchen,47732,US,Carlisle,40.187,-77.214,10011010
8589934660,69,Dragonfly Cafe,12630,NL,Amsterdam,52.351,4.841,11100000
231928234024,41,The Daily Bread,33573,US,Olga,48.603,-122.824,10100100
137438953488,17,The Rustic Table,11038,ES,Barcelona,41.394,2.174,11001010
60129542210,67,Crimson and Clover,71555,GB,London,51.536,-0.105,10110101
137438953487,16,The Spice Tree,11038,ES,Barcelona,41.388,2.160,11001010
197568495621,6,The Daily Grind,24784,US,Colorado City,32.388,-100.855,10001101
171798691867,28,The Spicy Pickle,65939,IT,Milan,45.467,9.183,11100000
231928234030,47,The Juicy Burger,33573,FR,Paris,48.872,2.312,11100000
163208757254,7,Cafe Roma,96638,US,Sylacauga,33.218,-86.195,10011000
60129542187,44,The French Kitchen,71555,FR,Paris,48.850,2.334,11100000
154618822722,67,Crimson and Clover,41484,GB,London,51.502,-0.160,10110101
163208757250,3,Spice Bazaar,96638,US,Houston,29.753,-95.361,10001101
223338299418,27,The Corner Cafe,36937,US,Genoa City,42.528,-88.306,10011010
231928234027,44,The French Kitchen,33573,FR,Paris,48.855,2.307,11100000
34359738438,71,Fire and Spice,50333,GB,London,51.558,-0.284,10110101
77309411339,12,The Wooden Spoon,78190,US,Huntersville,35.440,-80.873,10011010
180388626453,22,The Red Pepper,7531,US,Elk Grove Village,42.008,-87.937,10011010
77309411370,43,The Food House,78190,FR,Paris,48.849,2.274,11100000
8,9,The Grill House,47732,US,Burnsville,35.770,-82.198,10011010
77309411350,23,The Hungry Pig,78190,US,Silverthorne,39.841,-106.235,10001111
240518168588,13,The Firehouse,93164,US,Amarillo,35.195,-101.742,10001111
240518168594,19,The Tasting Room,93164,US,Lawrence,38.922,-95.261,10001111
128849018939,60,Big City Grill,5679,FR,Paris,48.874,2.344,11100000
240518168620,45,The Green Bean,93164,IT,Milan,45.444,9.138,11100000
240518168628,53,The Red Rooster,93164,AT,Vienna,48.202,16.370,11100000
103079215112,9,The Grill House,4340,US,Monroe,32.494,-92.083,10001101
206158430263,56,The Waffle House,53370,AT,Vienna,48.219,16.388,11100000
46,47,The Juicy Burger,47732,FR,Paris,48.840,2.266,11100000
154618822680,25,The Cozy Cafe,41484,ES,Barcelona,41.390,2.121,11001010
266287972406,55,The Steak House,11263,FR,Paris,48.870,2.321,11100000
171798691845,6,The Daily Grind,65939,US,Sevierville,35.868,-83.551,10011010
17179869235,52,The Red Door,10902,FR,Paris,48.843,2.342,11100000
154618822688,33,The Blue Elephant,41484,US,Oswego,43.458,-76.509,10011010
223338299434,43,The Food House,36937,FR,Paris,48.877,2.297,11100000
42949672969,10,The Golden Spoon,89646,US,Owasso,36.265,-95.847,10001111
34359738393,26,The Silver Spoon,50333,US,Aberdeen,45.458,-98.441,10100101
42949672985,26,The Silver Spoon,89646,ES,Barcelona,41.404,2.190,11001010
120259084306,19,The Tasting Room,59829,ES,Barcelona,41.380,2.175,11001010
34359738442,75,Greenhouse Cafe,50333,NL,Amsterdam,52.364,4.881,11100000
249108103205,38,Cafe Viva,55897,US,Burdett,42.418,-76.867,10011010
60129542162,19,The Tasting Room,71555,US,Leesburg,39.094,-77.486,10011010
146028888135,72,Flamingo Cafe,70611,GB,London,51.492,-0.191,10110101
111669149754,59,Azalea Cafe,84488,GB,London,51.516,-0.088,10110101
223338299394,3,Spice Bazaar,36937,US,Pompano Beach,26.231,-80.159,10011000
128849018949,70,Earth and Vine,5679,GB,London,51.510,-0.197,10110101
171798691859,20,The Brasserie,65939,ES,Barcelona,41.406,2.201,11001010
223338299414,23,The Hungry Pig,36937,ES,Barcelona,41.392,2.172,11001010
68719476782,47,The Juicy Burger,77517,FR,Paris,48.873,2.310,11100000
85899345987,68,Delish Cafe,18952,NL,Amsterdam,52.374,4.904,11100000
146028888074,11,The Flaming Wok,70611,US,Kiowa,34.686,-95.922,10001111
17179869244,61,Blue Water Bistro,10902,FR,Paris,48.867,2.308,11100000
60129542154,11,The Flaming Wok,71555,US,Young Harris,34.959,-83.846,10011010
8589934610,19,The Tasting Room,12630,US,Troy,40.024,-84.226,10011010
111669149718,23,The Hungry Pig,84488,US,Fort Madison,40.624,-91.370,10001111
180388626449,18,The Harvest Room,7531,ES,Barcelona,41.384,2.110,11001010
257698037782,23,The Hungry Pig,26468,ES,Barcelona,41.394,2.150,11001010
34359738425,58,A Tasty Bite,50333,FR,Paris,48.892,2.302,11100000
206158430247,40,Crimson Cafe,53370,US,Lithia Springs,45.434,12.346,11100000
85899345944,25,The Cozy Cafe,18952,ES,Barcelona,41.396,2.179,11001010
163208757320,73,Fresh Harvest,96638,GB,London,51.528,-0.089,10110101
85899345976,57,The Yellow Submarine,18952,GB,London,51.495,-0.186,10110101
137438953493,22,The Red Pepper,11038,US,South Portland,43.640,-70.337,10011010
257698037806,47,The Juicy Burger,26468,FR,Paris,48.842,2.330,11100000
51539607556,5,The Hungry Hippo,6934,US,Conway,33.840,-79.060,10011010
111669149744,49,The Olive Tree,84488,FR,Paris,48.871,2.315,11100000
257698037816,57,The Yellow Submarine,26468,FR,Paris,48.871,2.325,11100000
37,38,Cafe Viva,47732,IT,Milan,45.477,9.205,11100000
163208757298,51,The Pizzeria,96638,FR,Paris,48.837,2.372,11100000
57,58,A Tasty Bite,47732,GB,London,51.493,-0.184,10110101
120259084341,54,The Spice House,59829,GB,London,51.502,-0.119,10110101
94489280530,19,The Tasting Room,95399,US,Southport,40.454,32.622,11001011
137438953525,54,The Spice House,11038,GB,London,51.514,-0.134,10110101
223338299443,52,The Red Door,36937,GB,London,51.508,-0.131,10110101
206158430287,80,The Market Cafe,53370,GB,London,51.507,-0.021,10110101
188978561095,72,Flamingo Cafe,3642,GB,London,51.507,-0.142,10110101
8589934644,53,The Red Rooster,12630,FR,Paris,48.891,2.338,11100000
180388626436,5,The Hungry Hippo,7531,US,Lincoln,33.580,-86.060,10011000
42949672972,13,The Firehouse,89646,US,El Cerrito,37.915,-122.311,10001110
137438953509,38,Cafe Viva,11038,AT,Vienna,48.211,16.378,11100000
17179869249,66,City Bites,10902,FR,Paris,48.878,2.293,11100000
137438953519,48,The Local Cafe,11038,FR,Paris,48.885,2.300,11100000
154618822695,40,Crimson Cafe,41484,IT,Milan,45.484,9.200,11100000
111669149704,9,The Grill House,84488,US,Rancho Mirage,33.799,-116.406,10001110
128849018954,75,Greenhouse Cafe,5679,NL,Amsterdam,52.359,4.989,11100000
197568495649,34,The Tasty Treat,24784,US,Hartford,41.735,-72.660,10011010
25769803812,37,Cafe Crepe,72230,US,Deadwood,44.376,-103.730,10001111
257698037798,39,Cinnamon Grill,26468,US,Tacoma,47.178,-122.463,10100100
25769803820,45,The Green Bean,72230,US,Cloquet,46.714,-92.465,10100101
257698037790,31,Bistro 42,26468,IT,Milan,45.463,9.188,11100000
77309411349,22,The Red Pepper,78190,US,Manhattan,39.180,-96.557,10001111
154618822709,54,The Spice House,41484,FR,Paris,48.853,2.334,11100000
25769803810,35,Basilica Bistro,72230,US,Whitehall,43.409,-86.317,10011010
34359738392,25,The Cozy Cafe,50333,IT,Milan,45.457,9.194,11100000
171798691861,22,The Red Pepper,65939,US,Westmont,41.816,-87.955,10011010
257698037763,4,The Blue Plate,26468,US,West Palm Beach,26.698,-80.073,10011000
223338299395,4,The Blue Plate,36937,US,Dublin,32.487,-82.939,10011000
51539607581,30,The Wine Cellar,6934,US,Bend,44.052,-121.264,10001110
94489280540,29,The Olive Branch,95399,ES,Barcelona,41.409,2.148,11001010
188978561026,3,Spice Bazaar,3642,US,Houston,29.681,-95.403,10001101
94489280542,31,Bistro 42,95399,US,Long Eddy,41.845,-75.114,10011010
249108103234,67,Crimson and Clover,55897,GB,London,51.513,-0.152,10110101
214748364871,72,Flamingo Cafe,92040,GB,London,51.511,-0.135,10110101
60129542160,17,The Rustic Table,71555,US,London,37.145,-84.108,10011010
111669149712,17,The Rustic Table,84488,US,Vandalia,38.970,-89.129,10011010
8589934604,13,The Firehouse,12630,US,Colorado Springs,38.880,-104.868,10001111
17179869216,33,The Blue Elephant,10902,US,Hill City,43.959,-103.737,10001111
223338299397,6,The Daily Grind,36937,US,Albuquerque,35.121,-106.653,10001111
171798691853,14,The Gourmet Garden,65939,US,Huntingdon,40.484,-78.011,10011010
94489280539,28,The Spicy Pickle,95399,ES,Barcelona,41.395,2.147,11001010
249108103200,33,The Blue Elephant,55897,ES,Barcelona,41.392,2.159,11001010
266287972371,20,The Brasserie,11263,US,Eureka,40.768,-124.192,10001110
85899345950,31,Bistro 42,18952,US,Pinedale,42.867,-109.874,10001111
137438953481,10,The Golden Spoon,11038,US,Larkspur,37.944,-122.506,10001110
214748364808,9,The Grill House,92040,US,Cleveland,35.210,-84.870,10011010
137438953496,25,The Cozy Cafe,11038,IT,Milan,45.448,9.257,11100000
8589934656,65,Chef's Corner,12630,GB,London,51.519,-0.142,10110101
120259084340,53,The Red Rooster,59829,GB,London,51.502,-0.187,10110101
249108103224,57,The Yellow Submarine,55897,FR,Paris,48.855,2.331,11100000
154618822684,29,The Olive Branch,41484,US,Merrillville,41.469,-87.330,10011010
68719476759,24,The Fisherman's Catch,77517,US,South Deerfield,42.424,-72.622,10011010
128849018887,8,The Green Olive,5679,US,Chinle,36.151,-109.547,10001111
206158430242,35,Basilica Bistro,53370,US,Boise,43.608,-116.192,10001110
257698037830,71,Fire and Spice,26468,GB,London,51.518,-0.158,10110101
223338299442,51,The Pizzeria,36937,GB,London,51.508,-0.147,10110101
8589934655,64,Chateau de Cuisine,12630,GB,London,51.517,-0.081,10110101
266287972375,24,The Fisherman's Catch,11263,ES,Barcelona,41.389,2.157,11001010
240518168635,60,Big City Grill,93164,FR,Paris,48.868,2.327,11100000
231928234021,38,Cafe Viva,33573,AT,Vienna,48.205,16.351,11100000
146028888129,66,City Bites,70611,FR,Paris,48.871,2.301,11100000
51539607586,35,Basilica Bistro,6934,US,Portland,45.541,-122.480,10100100
154618822681,26,The Silver Spoon,41484,ES,Barcelona,41.403,2.123,11001010
128849018917,38,Cafe Viva,5679,IT,Milan,45.457,9.168,11100000
94489280526,15,The Pearl Kitchen,95399,US,Bowie,38.943,-76.734,10011010
51539607594,43,The Food House,6934,FR,Paris,48.855,2.335,11100000
25769803825,50,The Pancake House,72230,AT,Vienna,48.212,16.368,11100000
206158430268,61,Blue Water Bistro,53370,FR,Paris,48.857,2.285,11100000
197568495672,57,The Yellow Submarine,24784,FR,Paris,48.859,2.367,11100000
27,28,The Spicy Pickle,47732,US,Pierce,42.199,-97.526,10001111
77309411382,55,The Steak House,78190,FR,Paris,48.885,2.334,11100000
120259084305,18,The Harvest Room,59829,US,Redding,40.602,-122.385,10001110
120259084311,24,The Fisherman's Catch,59829,ES,Barcelona,41.423,2.146,11001010
163208757258,11,The Flaming Wok,96638,US,Jellico,36.581,-84.113,10011010
128849018898,19,The Tasting Room,5679,ES,Barcelona,41.375,2.168,11001010
206158430253,46,The Italian Table,53370,US,Hayward,46.085,-91.217,10100101
8589934612,21,The Lazy Daisy,12630,US,Allentown,40.576,-75.531,10011010
137438953495,24,The Fisherman's Catch,11038,US,Colchester,44.514,-73.183,10011010
223338299424,33,The Blue Elephant,36937,IT,Milan,45.479,9.196,11100000
103079215177,74,Garden of Eatin',4340,GB,London,51.561,-0.279,10110101
231928233992,9,The Grill House,33573,US,Blackwell,36.812,-97.298,10001111
120259084308,21,The Lazy Daisy,59829,ES,Barcelona,41.386,2.171,11001010
4,5,The Hungry Hippo,47732,US,Fort Worth,32.735,-97.435,10001101
111669149724,29,The Olive Branch,84488,ES,Barcelona,41.392,2.158,11001010
188978561050,27,The Corner Cafe,3642,ES,Barcelona,41.378,2.179,11001010
223338299423,32,The Orange Peeler,36937,IT,Milan,45.469,9.198,11100000
51539607564,13,The Firehouse,6934,US,Olathe,38.848,-94.824,10001111
128849018943,64,Chateau de Cuisine,5679,GB,London,51.493,-0.160,10110101
214748364822,23,The Hungry Pig,92040,ES,Barcelona,41.394,2.199,11001010
266287972366,15,The Pearl Kitchen,11263,US,Springfield,39.895,-83.815,10011010
231928233995,12,The Wooden Spoon,33573,US,Saint Louis,38.633,-90.184,10001111
128849018893,14,The Gourmet Garden,5679,US,Columbia,38.962,-92.244,10001111
180388626450,19,The Tasting Room,7531,ES,Barcelona,41.384,2.185,11001010
188978561089,66,City Bites,3642,FR,Paris,48.875,2.291,11100000
128849018955,76,Happy Hour Cafe,5679,NL,Amsterdam,52.365,4.873,11100000
206158430252,45,The Green Bean,53370,US,Hillsboro,45.533,-122.921,10100100
146028888089,26,The Silver Spoon,70611,ES,Barcelona,41.386,2.166,11001010
8589934642,51,The Pizzeria,12630,FR,Paris,48.884,2.334,11100000
146028888083,20,The Brasserie,70611,US,Effingham,39.141,-88.566,10011010
42949673029,70,Earth and Vine,89646,GB,London,51.529,-0.128,10110101
146028888136,73,Fresh Harvest,70611,GB,London,51.494,-0.185,10110101
42949673003,44,The French Kitchen,89646,AT,Vienna,48.183,16.376,11100000
266287972369,18,The Harvest Room,11263,US,Entriken,40.340,-78.201,10011010
249108103203,36,Blue Ocean Grill,55897,US,Chicago,41.886,-87.626,10011010
266287972403,52,The Red Door,11263,FR,Paris,48.856,2.335,11100000
223338299439,48,The Local Cafe,36937,GB,London,51.499,-0.106,10110101
85899345924,5,The Hungry Hippo,18952,US,Deming,32.266,-107.791,10001101
103079215145,42,The Daily Scoop,4340,US,Gillette,44.294,-105.530,10001111
8589934606,15,The Pearl Kitchen,12630,US,Ely,39.251,-114.882,10001110
8589934608,17,The Rustic Table,12630,US,Parkville,39.398,-76.563,10011010
17179869227,44,The French Kitchen,10902,AT,Vienna,48.194,16.297,11100000
103079215136,33,The Blue Elephant,4340,ES,Barcelona,41.392,2.166,11001010
8589934597,6,The Daily Grind,12630,US,Manchester,35.461,-86.062,10011010
64,65,Chef's Corner,47732,GB,London,51.515,-0.057,10110101
206158430238,31,Bistro 42,53370,US,Deerfield,42.153,-87.890,10011010
111669149730,35,Basilica Bistro,84488,IT,Milan,45.501,9.145,11100000
120259084324,37,Cafe Crepe,59829,FR,Paris 13,48.836,2.360,11100000
68719476736,1,Savoria,77517,US,Fort Lauderdale,26.106,-80.137,10011000
128849018946,67,Crimson and Clover,5679,GB,London,51.499,-0.113,10110101
266287972390,39,Cinnamon Grill,11263,IT,Milan,45.470,9.190,11100000
214748364843,44,The French Kitchen,92040,FR,Paris,48.824,2.324,11100000
17179869254,71,Fire and Spice,10902,GB,London,51.501,-0.017,10110101
240518168618,43,The Food House,93164,US,North Conway,44.049,-71.125,10011010
8589934598,7,Cafe Roma,12630,US,Lincolnton,35.471,-81.240,10011010
60129542202,59,Azalea Cafe,71555,GB,London,51.511,-0.077,10110101
111669149751,56,The Waffle House,84488,GB,London,51.496,-0.170,10110101
77309411361,34,The Tasty Treat,78190,IT,Milan,45.473,9.144,11100000
137438953523,52,The Red Door,11038,GB,London,51.510,-0.132,10110101
214748364863,64,Chateau de Cuisine,92040,FR,Paris,48.881,2.327,11100000
206158430214,7,Cafe Roma,53370,US,Prattville,32.486,-86.409,10011000
154618822731,76,Happy Hour Cafe,41484,GB,Paddington,51.516,-0.172,10110101
77309411334,7,Cafe Roma,78190,US,Lubbock,33.536,-101.846,10001101
257698037812,53,The Red Rooster,26468,FR,Paris,48.865,2.282,11100000
77309411373,46,The Italian Table,78190,FR,Paris,48.857,2.328,11100000
77309411358,31,Bistro 42,78190,US,Wilmington,44.364,-73.824,10011010
85899345928,9,The Grill House,18952,US,Eloy,32.806,-111.671,10001101
154618822728,73,Fresh Harvest,41484,GB,London,51.511,-0.119,10110101
111669149756,61,Blue Water Bistro,84488,GB,London,51.520,-0.124,10110101
103079215172,69,Dragonfly Cafe,4340,GB,London,51.510,-0.127,10110101
34359738420,53,The Red Rooster,50333,FR,Paris,48.874,2.343,11100000
197568495638,23,The Hungry Pig,24784,US,Pittsburgh,40.446,-79.714,10011010
85899345961,42,The Daily Scoop,18952,AT,Vienna,48.183,16.378,11100000
146028888103,40,Crimson Cafe,70611,US,New York,45.058,7.559,11100000
22,23,The Hungry Pig,47732,ES,Barcelona,41.389,2.132,11001010
34359738387,20,The Brasserie,50333,US,East Syracuse,43.091,-76.079,10011010
111669149740,45,The Green Bean,84488,FR,Paris,48.857,2.330,11100000
266287972412,61,Blue Water Bistro,11263,FR,Paris,48.876,2.286,11100000
85899345973,54,The Spice House,18952,FR,Paris,48.881,2.324,11100000
154618822691,36,Blue Ocean Grill,41484,US,North Conway,44.074,-71.141,10011010
34,35,Basilica Bistro,47732,IT,Milan,45.447,9.207,11100000
249108103219,52,The Red Door,55897,AT,Donauinsel,48.227,16.400,11100000
60129542159,16,The Spice Tree,71555,US,Batesville,35.791,-91.638,10001111
8589934640,49,The Olive Tree,12630,FR,Paris,48.880,2.321,11100000
249108103197,30,The Wine Cellar,55897,ES,Barcelona,41.387,2.168,11001010
26,27,The Corner Cafe,47732,US,Providence,41.844,-71.428,10011010
180388626439,8,The Green Olive,7531,US,Piney Creek,36.555,-81.332,10011010
77309411352,25,The Cozy Cafe,78190,ES,Barcelona,41.375,2.161,11001010
103079215120,17,The Rustic Table,4340,US,Tulsa,36.168,-95.851,10001111
42949672977,18,The Harvest Room,89646,US,Lancaster,40.057,-76.331,10011010
214748364814,15,The Pearl Kitchen,92040,US,Chico,39.726,-121.837,10001110
171798691900,61,Blue Water Bistro,65939,GB,London,51.519,-0.087,10110101
266287972429,78,The Hot Spot,11263,GB,London,51.527,-0.130,10110101
128849018892,13,The Firehouse,5679,US,Saint Ann,38.715,-90.408,10001111
240518168597,22,The Red Pepper,93164,US,Philadelphia,39.907,-75.150,10011010
257698037828,69,Dragonfly Cafe,26468,GB,Paddington,51.516,-0.175,10110101
120259084293,6,The Daily Grind,59829,US,Mobile,30.684,-88.062,10011000
154618822732,77,Harvest Kitchen,41484,GB,London,51.520,-0.212,10110101
154618822738,83,The Pantry,41484,NL,Amsterdam,52.386,4.847,11100000
120259084295,8,The Green Olive,59829,US,Mesa,33.416,-111.714,10001101
8589934645,54,The Spice House,12630,FR,Paris,48.902,2.360,11100000
154618822703,48,The Local Cafe,41484,AT,Vienna,48.196,16.383,11100000
231928234020,37,Cafe Crepe,33573,AT,Vienna,48.204,16.373,11100000
231928233988,5,The Hungry Hippo,33573,US,Pinetop,34.135,-109.950,10001111
128849018937,58,A Tasty Bite,5679,FR,Paris,48.873,2.300,11100000
103079215105,2,Bella Cucina,4340,US,Miami,25.579,-80.367,10011000
206158430258,51,The Pizzeria,53370,AT,Vienna,48.195,16.369,11100000
146028888071,8,The Green Olive,70611,US,Madison,33.557,-83.475,10011000
206158430245,38,Cafe Viva,53370,US,Cody,44.526,-109.058,10001111
85899345921,2,Bella Cucina,18952,US,Staten Island,-6.195,106.824,01111010
180388626479,48,The Local Cafe,7531,FR,Paris,48.860,2.344,11100000
231928233986,3,Spice Bazaar,33573,US,Harvey,29.890,-90.058,10001101
42949672995,36,Blue Ocean Grill,89646,US,Burlington,44.479,-73.219,10011010
128849018938,59,Azalea Cafe,5679,FR,Paris,48.874,2.298,11100000
180388626499,68,Delish Cafe,7531,NL,Amsterdam Zuidoost,52.305,4.948,11100000
85899345960,41,The Daily Bread,18952,US,Griante,45.988,9.234,11100000
17179869213,30,The Wine Cellar,10902,US,Geneva,42.857,-77.006,10011010
68719476785,50,The Pancake House,77517,US,Gresham,49.803,9.921,11100000
154618822667,12,The Wooden Spoon,41484,US,Soddy Daisy,35.251,-85.181,10011010
146028888139,76,Happy Hour Cafe,70611,GB,London,51.500,-0.160,10110101
62,63,Cafe Paris,47732,GB,London,51.512,-0.203,10110101
146028888110,47,The Juicy Burger,70611,IT,Milan,45.491,9.161,11100000
163208757260,13,The Firehouse,96638,US,Saint Robert,37.824,-92.150,10001111
8589934658,67,Crimson and Clover,12630,GB,London,51.526,-0.114,10110101
60129542165,22,The Red Pepper,71555,US,Golden,39.756,-105.222,10001111
94489280523,12,The Wooden Spoon,95399,US,Bishop,37.363,-118.396,10001110
8589934619,28,The Spicy Pickle,12630,US,Fontana,42.549,-88.576,10011010
266287972365,14,The Gourmet Garden,11263,US,Charles Town,39.293,-77.851,10011010
154618822692,37,Cafe Crepe,41484,US,Lebanon,45.314,6.540,11100000
197568495624,9,The Grill House,24784,US,Ontario,34.069,-117.563,10001110
77309411357,30,The Wine Cellar,78190,US,Springfield,44.084,-123.040,10001110
17179869248,65,Chef's Corner,10902,FR,Paris,48.875,2.325,11100000
8589934617,26,The Silver Spoon,12630,ES,Barcelona,41.394,2.163,11001010
206158430255,48,The Local Cafe,53370,US,Walker,47.091,-94.572,10100101
60129542185,42,The Daily Scoop,71555,AT,Vienna,48.220,16.360,11100000
146028888072,9,The Grill House,70611,US,Atlanta,33.849,-84.365,10011010
231928234031,48,The Local Cafe,33573,FR,Paris,48.873,2.324,11100000
206158430254,47,The Juicy Burger,53370,US,Finlayson,46.180,-92.855,10100101
128849018934,55,The Steak House,5679,FR,Paris,48.869,2.300,11100000
17179869202,19,The Tasting Room,10902,US,Colorado Springs,38.808,-104.727,10001111
214748364846,47,The Juicy Burger,92040,FR,Paris,48.848,2.342,11100000
171798691898,59,Azalea Cafe,65939,GB,London,51.515,-0.148,10110101
206158430274,67,Crimson and Clover,53370,FR,Paris,48.873,2.347,11100000
206158430281,74,Garden of Eatin',53370,GB,London,51.498,-0.180,10110101
94489280545,34,The Tasty Treat,95399,US,Wolfeboro,43.578,-71.196,10011010
188978561064,41,The Daily Bread,3642,IT,Milan,45.478,9.202,11100000
34359738391,24,The Fisherman's Catch,50333,US,Mableton,45.422,12.376,11100000
146028888076,13,The Firehouse,70611,US,Henderson,36.334,-78.441,10011010
77309411383,56,The Waffle House,78190,GB,London,51.461,-0.276,10110101
85899345953,34,The Tasty Treat,18952,US,Watertown,44.892,-97.061,10001111
137438953476,5,The Hungry Hippo,11038,US,Amarillo,35.189,-101.920,10001111
103079215118,15,The Pearl Kitchen,4340,US,West Memphis,35.160,-90.158,10001111
77309411384,57,The Yellow Submarine,78190,GB,London,51.491,-0.144,10110101
8589934630,39,Cinnamon Grill,12630,AT,Vienna,48.216,16.369,11100000
266287972360,9,The Grill House,11263,US,Sallisaw,35.451,-94.806,10001111
163208757304,57,The Yellow Submarine,96638,FR,Paris,48.869,2.289,11100000
137438953516,45,The Green Bean,11038,FR,Paris,48.872,2.338,11100000
180388626497,66,City Bites,7531,GB,London,51.521,-0.263,10110101
111669149757,62,Cafe Luminoso,84488,GB,London,51.573,-0.223,10110101
214748364866,67,Crimson and Clover,92040,GB,London,51.494,-0.175,10110101
266287972357,6,The Daily Grind,11263,US,San Diego,32.726,-117.224,10001100
31,32,The Orange Peeler,47732,US,Jackson,43.483,-110.765,10001111
58,59,Azalea Cafe,47732,GB,London,51.494,-0.137,10110101
85899345958,39,Cinnamon Grill,18952,IT,Milan,45.485,9.212,11100000
120259084333,46,The Italian Table,59829,FR,Paris,48.874,2.306,11100000
34359738371,4,The Blue Plate,50333,US,Las Vegas,36.172,-115.146,10001110
163208757277,30,The Wine Cellar,96638,ES,Barcelona,41.387,2.197,11001010
163208757285,38,Cafe Viva,96638,US,Bay City,43.597,-83.891,10011010
111669149735,40,Crimson Cafe,84488,AT,Vienna,48.195,16.340,11100000
257698037809,50,The Pancake House,26468,FR,Paris,48.856,2.366,11100000
266287972409,58,A Tasty Bite,11263,FR,Paris,48.871,2.327,11100000
171798691862,23,The Hungry Pig,65939,US,Fennville,42.621,-86.212,10011010
146028888113,50,The Pancake House,70611,US,Billings,45.752,-108.581,10100101
188978561103,80,The Market Cafe,3642,NL,Amsterdam,52.378,4.914,11100000
257698037827,68,Delish Cafe,26468,GB,London,51.515,-0.158,10110101
68719476779,44,The French Kitchen,77517,FR,Paris,48.863,2.372,11100000
249108103225,58,A Tasty Bite,55897,FR,Paris,48.855,2.333,11100000
146028888094,31,Bistro 42,70611,US,Grand Rapids,42.913,-85.532,10011010
214748364870,71,Fire and Spice,92040,GB,London,51.511,-0.186,10110101
34359738434,67,Crimson and Clover,50333,GB,London,51.514,-0.319,10110101
34359738372,5,The Hungry Hippo,50333,US,Enid,36.391,-97.922,10001111
25769803813,38,Cafe Viva,72230,US,Newport,44.638,-124.061,10001110
77309411342,15,The Pearl Kitchen,78190,US,Guymon,36.690,-101.474,10001111
25769803811,36,Blue Ocean Grill,72230,US,Jackson,43.484,-110.762,10001111
214748364842,43,The Food House,92040,US,Bellingham,48.781,-122.486,10100100
94489280563,52,The Red Door,95399,GB,London,51.494,-0.159,10110101
34359738374,7,Cafe Roma,50333,US,Virginia Beach,36.848,-75.984,10011010
94489280520,9,The Grill House,95399,US,Selma,36.563,-119.613,10001110
206158430212,5,The Hungry Hippo,53370,US,Jacksonville,30.480,-81.649,10011000
223338299432,41,The Daily Bread,36937,FR,Paris,48.871,2.338,11100000
42949672984,25,The Cozy Cafe,89646,ES,Barcelona,41.398,2.149,11001010
249108103174,7,Cafe Roma,55897,US,Myrtle Beach,33.722,-78.921,10011000
137438953506,35,Basilica Bistro,11038,AT,Vienna,48.188,16.273,11100000
77309411338,11,The Flaming Wok,78190,US,Memphis,35.206,-89.792,10011010
249108103213,46,The Italian Table,55897,IT,Milan,45.485,9.198,11100000
94489280571,60,Big City Grill,95399,GB,London,51.524,-0.126,10110101
85899345945,26,The Silver Spoon,18952,US,Newburgh,41.505,-74.073,10011010
180388626478,47,The Juicy Burger,7531,FR,Paris,48.860,2.324,11100000
146028888137,74,Garden of Eatin',70611,GB,London,51.496,-0.180,10110101
163208757263,16,The Spice Tree,96638,US,Osage Beach,38.145,-92.630,10001111
120259084342,55,The Steak House,59829,GB,London,51.504,-0.224,10110101
137438953504,33,The Blue Elephant,11038,US,Park City,45.532,4.279,11100000
51539607576,25,The Cozy Cafe,6934,ES,Barcelona,41.393,2.155,11001010
197568495677,62,Cafe Luminoso,24784,FR,Paris,48.866,2.337,11100000
17179869188,5,The Hungry Hippo,10902,US,Macon,32.813,-83.720,10011000
257698037805,46,The Italian Table,26468,FR,Paris,48.831,2.330,11100000
51539607607,56,The Waffle House,6934,GB,London,51.555,-0.286,10110101
25769803780,5,The Hungry Hippo,72230,US,Atlanta,33.919,-84.349,10011010
223338299430,39,Cinnamon Grill,36937,FR,Paris,48.865,2.330,11100000
180388626494,63,Cafe Paris,7531,GB,London,51.515,-0.134,10110101
206158430273,66,City Bites,53370,FR,Paris,48.871,2.293,11100000
197568495623,8,The Green Olive,24784,US,Alpharetta,34.042,-84.304,10011010
42949672987,28,The Spicy Pickle,89646,US,Oak Brook,41.847,-87.954,10011010
188978561043,20,The Brasserie,3642,US,Glen Burnie,37.532,22.890,11001011
257698037799,40,Crimson Cafe,26468,US,Newman Lake,47.767,-117.103,10100100
257698037784,25,The Cozy Cafe,26468,US,Hartford,41.768,-72.673,10011010
223338299405,14,The Gourmet Garden,36937,US,Indianapolis,39.911,-86.257,10011010
206158430210,3,Spice Bazaar,53370,US,Sarasota,27.382,-82.550,10011000
154618822734,79,The Huckleberry Cafe,41484,NL,Amsterdam,52.362,4.912,11100000
51539607599,48,The Local Cafe,6934,FR,Paris,48.871,2.318,11100000
68719476755,20,The Brasserie,77517,ES,Barcelona,41.399,2.163,11001010
240518168637,62,Cafe Luminoso,93164,FR,Paris,48.869,2.303,11100000
60129542181,38,Cafe Viva,71555,AT,Vienna,48.208,16.375,11100000
249108103210,43,The Food House,55897,US,Cave Spring,45.432,12.336,11100000
85899345929,10,The Golden Spoon,18952,US,Lenoir City,35.827,-84.278,10011010
188978561029,6,The Daily Grind,3642,US,Patagonia,31.522,-110.701,10001101
223338299409,18,The Harvest Room,36937,US,Redding,40.578,-122.358,10001110
34359738430,63,Cafe Paris,50333,GB,London,51.499,-0.134,10110101
111669149761,66,City Bites,84488,NL,Amsterdam,52.379,4.821,11100000
51539607565,14,The Gourmet Garden,6934,US,Arcola,39.682,-88.298,10011010
231928234036,53,The Red Rooster,33573,GB,London,51.514,-0.146,10110101
146028888125,62,Cafe Luminoso,70611,FR,Paris,48.854,2.337,11100000
163208757255,8,The Green Olive,96638,US,Phoenix,33.455,-112.067,10001101
197568495668,53,The Red Rooster,24784,FR,Paris,48.849,2.332,11100000
85899345968,49,The Olive Tree,18952,FR,Paris,48.867,2.309,11100000
51539607588,37,Cafe Crepe,6934,AT,Vienna,48.179,16.412,11100000
137438953479,8,The Green Olive,11038,US,Kingsport,36.563,-82.566,10011010
68719476767,32,The Orange Peeler,77517,IT,Milan,45.467,9.185,11100000
206158430229,22,The Red Pepper,53370,US,Midway,40.532,-111.490,10001111
266287972420,69,Dragonfly Cafe,11263,GB,London,51.497,-0.156,10110101
17179869264,81,The Oak Room,10902,NL,Amsterdam,52.375,4.893,11100000
154618822721,66,City Bites,41484,GB,London,51.501,-0.117,10110101
111669149707,12,The Wooden Spoon,84488,US,Burlington,36.063,-79.435,10011010
249108103170,3,Spice Bazaar,55897,US,Waco,31.518,-97.138,10001101
8589934601,10,The Golden Spoon,12630,US,Roanoke,37.256,-79.947,10011010
231928233991,8,The Green Olive,33573,US,Statesville,35.987,-80.988,10011010
240518168613,38,Cafe Viva,93164,US,Binghamton,42.130,-75.906,10011010
8589934654,63,Cafe Paris,12630,GB,London,51.516,-0.164,10110101
68719476753,18,The Harvest Room,77517,US,Incline Village,39.244,-119.936,10001110
249108103236,69,Dragonfly Cafe,55897,GB,London,51.518,-0.153,10110101
103079215171,68,Delish Cafe,4340,GB,London,51.510,-0.150,10110101
197568495691,76,Happy Hour Cafe,24784,GB,London,51.493,-0.229,10110101
231928233994,11,The Flaming Wok,33573,US,Medina,37.851,15.294,11001010
77309411376,49,The Olive Tree,78190,FR,Paris,48.864,2.293,11100000
197568495704,89,The Silver Skillet,24784,NL,Amsterdam,52.377,4.905,11100000
206158430246,39,Cinnamon Grill,53370,US,Chippewa Falls,44.914,-91.400,10001111
51,52,The Red Door,47732,FR,Paris,48.870,2.330,11100000
154618822682,27,The Corner Cafe,41484,ES,Barcelona,41.411,2.219,11001010
249108103175,8,The Green Olive,55897,US,Anaheim,33.802,-117.915,10001110
257698037783,24,The Fisherman's Catch,26468,ES,Barcelona,41.400,2.145,11001010
249108103188,21,The Lazy Daisy,55897,US,Oroville,39.504,-121.570,10001110
85899345959,40,Crimson Cafe,18952,IT,Milan,45.490,9.155,11100000
206158430231,24,The Fisherman's Catch,53370,US,New York,40.758,-73.986,10011010
240518168582,7,Cafe Roma,93164,US,Shreveport,32.450,-93.862,10001101
197568495696,81,The Oak Room,24784,GB,London,51.507,-0.028,10110101
25769803784,9,The Grill House,72230,US,Cleveland,35.210,-84.871,10011010
154618822736,81,The Oak Room,41484,NL,Amsterdam,52.371,4.889,11100000
111669149713,18,The Harvest Room,84488,US,Takoma Park,38.975,-77.010,10011010
65,66,City Bites,47732,GB,London,51.518,-0.142,10110101
249108103227,60,Big City Grill,55897,FR,Paris,48.879,2.338,11100000
197568495670,55,The Steak House,24784,FR,Paris,48.849,2.343,11100000
60129542172,29,The Olive Branch,71555,ES,Barcelona,41.385,2.175,11001010
240518168587,12,The Wooden Spoon,93164,US,Bryant,34.621,-92.501,10001111
94489280543,32,The Orange Peeler,95399,US,Glenview,42.104,-87.821,10011010
163208757249,2,Bella Cucina,96638,US,Key West,24.557,-81.801,10011000
94489280521,10,The Golden Spoon,95399,US,Sikeston,36.891,-89.540,10011010
59,60,Big City Grill,47732,GB,London,51.500,-0.193,10110101
266287972394,43,The Food House,11263,AT,Vienna,48.203,16.366,11100000
120259084343,56,The Waffle House,59829,GB,London,51.506,-0.152,10110101
154618822674,19,The Tasting Room,41484,US,Lees Summit,38.903,-94.357,10001111
128849018909,30,The Wine Cellar,5679,US,West Yarmouth,41.657,-70.262,10011010
180388626488,57,The Yellow Submarine,7531,GB,London,51.499,-0.156,10110101
3,4,The Blue Plate,47732,US,Carthage,32.148,-94.324,10001101
111669149731,36,Blue Ocean Grill,84488,US,Iron Mountain,45.842,-88.050,10110000
85899345965,46,The Italian Table,18952,FR,Paris,48.840,2.330,11100000
17179869208,25,The Cozy Cafe,10902,ES,Barcelona,41.377,2.152,11001010
34359738402,35,Basilica Bistro,50333,AT,Vienna,48.201,16.373,11100000
103079215141,38,Cafe Viva,4340,US,Rockford,42.274,-88.967,10011010
111669149747,52,The Red Door,84488,FR,Paris,48.887,2.345,11100000
206158430282,75,Greenhouse Cafe,53370,GB,London,51.498,-0.113,10110101
25769803776,1,Savoria,72230,US,Kihei,20.763,-156.458,10000011
68719476777,42,The Daily Scoop,77517,FR,Paris,48.832,2.340,11100000
17,18,The Harvest Room,47732,US,Park City,40.651,-111.506,10001111
146028888092,29,The Olive Branch,70611,US,Grinnell,41.757,-92.727,10001111
240518168600,25,The Cozy Cafe,93164,US,Tannersville,41.053,-75.354,10011010
163208757265,18,The Harvest Room,96638,US,College Park,38.996,-76.932,10011010
197568495667,52,The Red Door,24784,FR,Paris,48.844,2.373,11100000
163208757293,46,The Italian Table,96638,US,Devils Lake,48.101,-98.848,10100101
42949672961,2,Bella Cucina,89646,US,San Diego,32.725,-117.210,10001100
249108103238,71,Fire and Spice,55897,GB,London,51.520,-0.102,10110101
34359738389,22,The Red Pepper,50333,US,Lead,44.335,-103.840,10001111
163208757253,6,The Daily Grind,96638,US,Carlsbad,33.164,-117.344,10001100
128849018923,44,The French Kitchen,5679,AT,Vienna,48.190,16.357,11100000
240518168612,37,Cafe Crepe,93164,US,Fall River,41.682,-71.184,10011010
146028888112,49,The Olive Tree,70611,US,Stevenson,45.692,-121.883,10100100
111669149706,11,The Flaming Wok,84488,US,Southern Pines,35.197,-79.392,10011010
249108103206,39,Cinnamon Grill,55897,US,Williams Bay,42.575,-88.556,10011010
42949673019,60,Big City Grill,89646,FR,Paris,48.878,2.349,11100000
240518168648,73,Fresh Harvest,93164,GB,London,51.603,0.011,11100000
171798691842,3,Spice Bazaar,65939,US,New Orleans,29.963,-90.059,10001101
25769803843,68,Delish Cafe,72230,NL,Amsterdam,52.361,4.916,11100000
8589934613,22,The Red Pepper,12630,US,Redding,40.590,-122.394,10001110
231928234006,23,The Hungry Pig,33573,US,Maumee,41.588,-83.667,10011010
128849018914,35,Basilica Bistro,5679,US,Spearfish,44.479,-103.815,10001111
197568495648,33,The Blue Elephant,24784,ES,Barcelona,41.408,2.212,11001010
128849018929,50,The Pancake House,5679,FR,Paris,48.848,2.343,11100000
77309411330,3,Spice Bazaar,78190,US,Titusville,28.552,-80.854,10011000
206158430285,78,The Hot Spot,53370,GB,London,51.504,-0.150,10110101
240518168640,65,Chef's Corner,93164,FR,Paris,48.879,2.345,11100000
128849018926,47,The Juicy Burger,5679,FR,Paris,48.835,2.330,11100000
197568495688,73,Fresh Harvest,24784,GB,London,51.482,-0.191,10110101
111669149741,46,The Italian Table,84488,FR,Paris,48.865,2.304,11100000
77309411347,20,The Brasserie,78190,US,Pioneer,38.671,-120.116,10001110
120259084339,52,The Red Door,59829,GB,London,51.501,-0.186,10110101
231928234011,28,The Spicy Pickle,33573,IT,Milan,45.456,9.187,11100000
137438953527,56,The Waffle House,11038,GB,London,51.516,-0.158,10110101
231928234007,24,The Fisherman's Catch,33573,US,Canyonville,42.941,-123.290,10001110
171798691887,48,The Local Cafe,65939,FR,Paris,48.866,2.327,11100000
146028888098,35,Basilica Bistro,70611,US,Lake Elmo,43.957,10.196,11001010
42949672963,4,The Blue Plate,89646,US,Atlanta,33.897,-84.467,10011010
85899345975,56,The Waffle House,18952,GB,London,51.494,-0.182,10110101
266287972374,23,The Hungry Pig,11263,ES,Barcelona,41.386,2.175,11001010
163208757248,1,Savoria,96638,US,Volcano,19.427,-155.237,10000011
25769803830,55,The Steak House,72230,FR,Paris,48.871,2.324,11100000
180388626472,41,The Daily Bread,7531,AT,Vienna,48.218,16.382,11100000
266287972433,82,The Palate,11263,NL,Amsterdam Zuidoost,52.314,4.939,11100000
137438953478,7,Cafe Roma,11038,US,Knoxville,36.014,-83.969,10011010
68719476752,17,The Rustic Table,77517,US,Aspen,39.186,-106.817,10001111
249108103233,66,City Bites,55897,GB,London,51.512,-0.119,10110101
103079215129,26,The Silver Spoon,4340,US,Absecon,39.447,-74.530,10011010
197568495634,19,The Tasting Room,24784,US,Beach Haven,39.550,-74.249,10011010
240518168583,8,The Green Olive,93164,US,San Diego,32.766,-117.150,10001100
103079215173,70,Earth and Vine,4340,GB,London,51.511,-0.078,10110101
128849018950,71,Fire and Spice,5679,GB,Paddington,51.512,-0.176,10110101
214748364853,54,The Spice House,92040,FR,Paris,48.859,2.330,11100000
188978561084,61,Blue Water Bistro,3642,FR,Paris,48.869,2.302,11100000
137438953517,46,The Italian Table,11038,FR,Paris,48.873,2.343,11100000
197568495699,84,The Pink Door,24784,GB,Paddington,51.516,-0.176,10110101
197568495663,48,The Local Cafe,24784,AT,Vienna,48.202,16.375,11100000
266287972359,8,The Green Olive,11263,US,Memphis,35.205,-89.809,10011010
103079215109,6,The Daily Grind,4340,US,Gatesville,31.434,-97.715,10001101
68719476800,65,Chef's Corner,77517,NL,Amsterdam,52.384,4.903,11100000
214748364838,39,Cinnamon Grill,92040,US,Cozad,45.787,4.765,11100000
94489280529,18,The Harvest Room,95399,US,Bloomingdale,40.363,-80.850,10011010
197568495646,31,Bistro 42,24784,ES,Barcelona,41.398,2.158,11001010
197568495622,7,Cafe Roma,24784,US,Signal Hill,33.790,-118.155,10001110
111669149762,67,Crimson and Clover,84488,NL,Amsterdam,52.400,4.894,11100000
94489280549,38,Cafe Viva,95399,US,Jackman,45.680,-70.284,10110000
171798691871,32,The Orange Peeler,65939,IT,Milan,45.490,9.201,11100000
103079215169,66,City Bites,4340,GB,London,51.506,-0.102,10110101
154618822676,21,The Lazy Daisy,41484,ES,Barcelona,41.375,2.149,11001010
206158430218,11,The Flaming Wok,53370,US,Winston Salem,36.079,-80.299,10011010
94489280515,4,The Blue Plate,95399,US,Tyler,32.323,-95.265,10001101
8589934635,44,The French Kitchen,12630,FR,Paris,48.866,2.288,11100000
42949672968,9,The Grill House,89646,US,Moore,35.352,-97.495,10001111
42949672979,20,The Brasserie,89646,ES,Barcelona,41.380,2.154,11001010
77309411362,35,Basilica Bistro,78190,IT,Milan,45.486,9.164,11100000
171798691864,25,The Cozy Cafe,65939,US,Rapid City,44.018,-103.305,10001111
266287972419,68,Delish Cafe,11263,GB,London,51.492,-0.168,10110101
146028888080,17,The Rustic Table,70611,US,Springfield,37.209,-93.228,10001111
77309411344,17,The Rustic Table,78190,US,Corbin,36.920,-84.128,10011010
266287972386,35,Basilica Bistro,11263,US,Ennis,45.349,-111.725,10100101
223338299450,59,Azalea Cafe,36937,NL,Amsterdam,52.368,4.844,11100000
25769803822,47,The Juicy Burger,72230,AT,Vienna,48.192,16.377,11100000
8589934593,2,Bella Cucina,12630,US,San Diego,32.776,-117.252,10001100
42949673009,50,The Pancake House,89646,AT,Vienna,48.251,16.299,11100000
17179869238,55,The Steak House,10902,FR,Paris,48.853,2.344,11100000
240518168579,4,The Blue Plate,93164,US,Baton Rouge,30.429,-91.060,10001101
77309411386,59,Azalea Cafe,78190,GB,London,51.495,-0.195,10110101
257698037786,27,The Corner Cafe,26468,US,Galena,42.437,-90.449,10001111
231928234023,40,Crimson Cafe,33573,US,Winthrop,48.470,-120.177,10100100
17179869220,37,Cafe Crepe,10902,IT,Milan,45.461,9.189,11100000
206158430233,26,The Silver Spoon,53370,ES,Barcelona,41.380,2.173,11001010
266287972418,67,Crimson and Clover,11263,GB,London,51.491,-0.172,10110101
180388626443,12,The Wooden Spoon,7531,US,Ramey,37.812,23.775,11001011
17179869186,3,Spice Bazaar,10902,US,Hattiesburg,31.329,-89.350,10011000
94489280533,22,The Red Pepper,95399,US,Hauppauge,40.806,-73.265,10011010
128849018891,12,The Wooden Spoon,5679,US,Saint Mary,37.883,-89.954,10011010
120259084317,30,The Wine Cellar,59829,IT,Milan,45.466,9.190,11100000
120259084299,12,The Wooden Spoon,59829,US,Sweetwater,35.598,-84.511,10011010
34359738378,11,The Flaming Wok,50333,US,Rohnert Park,38.346,-122.714,10001110
171798691863,24,The Fisherman's Catch,65939,US,Austin,43.682,-92.984,10001111
180388626441,10,The Golden Spoon,7531,US,Protection,37.202,-99.484,10001111
94489280555,44,The French Kitchen,95399,FR,Paris,48.868,2.304,11100000
32,33,The Blue Elephant,47732,US,Idaho Falls,43.495,-112.052,10001111
266287972427,76,Happy Hour Cafe,11263,GB,London,51.517,-0.151,10110101
85899345971,52,The Red Door,18952,FR,Paris,48.871,2.339,11100000
257698037824,65,Chef's Corner,26468,GB,London,51.505,-0.100,10110101
188978561093,70,Earth and Vine,3642,GB,London,51.502,-0.158,10110101
163208757288,41,The Daily Bread,96638,US,Guernsey,45.079,14.150,11100000
249108103240,73,Fresh Harvest,55897,GB,London,51.540,-0.370,10110101
266287972392,41,The Daily Bread,11263,AT,Vienna,48.188,16.378,11100000
163208757281,34,The Tasty Treat,96638,US,Cambridge,42.375,-71.110,10011010
231928234041,58,A Tasty Bite,33573,NL,Amsterdam,52.361,4.870,11100000
77309411395,68,Delish Cafe,78190,NL,Amsterdam,52.355,4.913,11100000
188978561101,78,The Hot Spot,3642,GB,London,51.563,-0.204,10110101
188978561060,37,Cafe Crepe,3642,US,Bay City,43.625,-83.934,10011010
94489280513,2,Bella Cucina,95399,US,San Antonio,29.488,-98.584,10001101
120259084302,15,The Pearl Kitchen,59829,US,Lexington,38.074,-84.497,10011010
146028888064,1,Savoria,70611,US,Curitiba,-25.437,-49.281,00110011
94489280525,14,The Gourmet Garden,95399,US,Newton,38.043,-97.320,10001111
197568495678,63,Cafe Paris,24784,FR,Paris,48.868,2.303,11100000
188978561034,11,The Flaming Wok,3642,US,Upland,34.089,-117.672,10001110
154618822723,68,Delish Cafe,41484,GB,London,51.503,-0.188,10110101
206158430237,30,The Wine Cellar,53370,ES,Barcelona,41.399,2.202,11001010
249108103193,26,The Silver Spoon,55897,US,Gretna,41.097,-96.253,10001111
146028888070,7,Cafe Roma,70611,US,Montgomery,32.360,-86.217,10011000
111669149743,48,The Local Cafe,84488,FR,Paris,48.867,2.326,11100000
171798691840,1,Savoria,65939,US,Fort Myers,26.684,-81.796,10011000
180388626458,27,The Corner Cafe,7531,US,Humeston,43.775,11.246,11001010
206158430234,27,The Corner Cafe,53370,ES,Barcelona,41.382,2.181,11001010
120259084313,26,The Silver Spoon,59829,IT,Milan,45.451,9.192,11100000
68719476751,16,The Spice Tree,77517,US,Shepherdsville,38.066,-85.698,10011010
180388626468,37,Cafe Crepe,7531,IT,Milan,45.505,9.246,11100000
214748364869,70,Earth and Vine,92040,GB,London,51.504,-0.033,10110101
77309411378,51,The Pizzeria,78190,FR,Paris,48.866,2.345,11100000
180388626434,3,Spice Bazaar,7531,US,Fort Walton Beach,30.404,-86.613,10011000
25769803828,53,The Red Rooster,72230,FR,Paris,48.867,2.304,11100000
60129542152,9,The Grill House,71555,US,Dillon,34.436,-79.370,10011010
77309411389,62,Cafe Luminoso,78190,GB,London,51.511,-0.121,10110101
25769803791,16,The Spice Tree,72230,US,New York,40.745,-73.992,10011010
68719476796,61,Blue Water Bistro,77517,GB,London,51.519,-0.159,10110101
94489280514,3,Spice Bazaar,95399,US,Tucson,32.224,-110.909,10001101
16,17,The Rustic Table,47732,US,Altoona,40.495,-78.395,10011010
34359738415,48,The Local Cafe,50333,FR,Paris,48.861,2.347,11100000
197568495650,35,Basilica Bistro,24784,US,Northwood,43.262,-71.243,10011010
85899345955,36,Blue Ocean Grill,18952,IT,Milan,45.458,9.191,11100000
77309411369,42,The Daily Scoop,78190,FR,Boulogne Billancourt,48.845,2.253,11100000
163208757271,24,The Fisherman's Catch,96638,US,Emlenton,41.178,-79.703,10011010
257698037780,21,The Lazy Daisy,26468,ES,Barcelona,41.375,2.171,11001010
197568495616,1,Savoria,24784,US,New York,18.458,-69.910,10010010
20,21,The Lazy Daisy,47732,ES,Barcelona,41.383,2.178,11001010
214748364827,28,The Spicy Pickle,92040,US,Moorcroft,44.264,-104.951,10001111
60129542188,45,The Green Bean,71555,FR,Paris,48.852,2.338,11100000
77309411368,41,The Daily Bread,78190,FR,Paris,48.818,2.329,11100000
240518168590,15,The Pearl Kitchen,93164,US,Fort Smith,35.348,-94.349,10001111
206158430235,28,The Spicy Pickle,53370,ES,Barcelona,41.384,2.161,11001010
60129542176,33,The Blue Elephant,71555,US,Toledo,41.649,-83.665,10011010
137438953499,28,The Spicy Pickle,11038,IT,Milan,45.470,9.193,11100000
77309411359,32,The Orange Peeler,78190,IT,Milan,45.463,9.210,11100000
206158430272,65,Chef's Corner,53370,FR,Paris,48.868,2.354,11100000
214748364868,69,Dragonfly Cafe,92040,GB,London,51.499,-0.209,10110101
171798691844,5,The Hungry Hippo,65939,US,Jackson,35.662,-88.857,10011010
188978561053,30,The Wine Cellar,3642,ES,Barcelona,41.394,2.162,11001010
231928234026,43,The Food House,33573,FR,Paris,48.854,2.308,11100000
146028888144,81,The Oak Room,70611,GB,London,51.516,-0.118,10110101
103079215126,23,The Hungry Pig,4340,US,Somerset,37.072,-84.618,10011010
85899345957,38,Cafe Viva,18952,IT,Milan,45.485,9.207,11100000
120259084290,3,Spice Bazaar,59829,US,Palm Harbor,28.107,-82.740,10011000
34359738394,27,The Corner Cafe,50333,IT,Milan,45.467,9.184,11100000
197568495689,74,Garden of Eatin',24784,GB,London,51.489,-0.121,10110101
68719476789,54,The Spice House,77517,GB,Paddington,51.513,-0.178,10110101
77309411333,6,The Daily Grind,78190,US,Savannah,32.103,-81.149,10011000
111669149749,54,The Spice House,84488,GB,London,51.490,-0.146,10110101
51539607552,1,Savoria,6934,US,Whigham,16.792,-99.827,10000111
154618822679,24,The Fisherman's Catch,41484,ES,Barcelona,41.384,2.178,11001010
266287972431,80,The Market Cafe,11263,GB,London,51.546,-0.070,10110101
223338299412,21,The Lazy Daisy,36937,ES,Barcelona,41.387,2.184,11001010
163208757317,70,Earth and Vine,96638,GB,Paddington,51.520,-0.171,10110101
25769803777,2,Bella Cucina,72230,US,Fort Lauderdale,26.124,-80.331,10011000
231928234014,31,Bistro 42,33573,IT,Milan,45.484,9.167,11100000
51539607604,53,The Red Rooster,6934,GB,London,51.505,-0.150,10110101
214748364802,3,Spice Bazaar,92040,US,Waco,31.502,-97.146,10001101
17179869240,57,The Yellow Submarine,10902,FR,Paris,48.855,2.308,11100000
128849018915,36,Blue Ocean Grill,5679,US,Belle Fourche,44.663,-103.854,10001111
206158430256,49,The Olive Tree,53370,US,Seattle,47.623,-122.355,10100100
231928234010,27,The Corner Cafe,33573,US,Dixfield,44.531,-70.457,10011010
111669149698,3,Spice Bazaar,84488,US,Monahans,31.592,-102.902,10001101
249108103208,41,The Daily Bread,55897,US,Greenbush,44.530,-83.315,10011010
25769803838,63,Cafe Paris,72230,GB,London,51.515,-0.161,10110101
94489280524,13,The Firehouse,95399,US,Groveland,37.812,-119.881,10001110
240518168584,9,The Grill House,93164,US,Dallas,32.809,-96.848,10001101
60129542150,7,Cafe Roma,71555,US,Little River,33.875,-78.617,10011010
257698037794,35,Basilica Bistro,26468,IT,Milan,45.510,9.174,11100000
68719476749,14,The Gourmet Garden,77517,US,Salem,37.265,-80.032,10011010
240518168622,47,The Juicy Burger,93164,IT,Milan,45.463,9.184,11100000
51539607601,50,The Pancake House,6934,FR,Paris,48.874,2.300,11100000
206158430276,69,Dragonfly Cafe,53370,FR,Paris,48.882,2.313,11100000
13,14,The Gourmet Garden,47732,US,Champaign,40.131,-88.244,10011010
34359738396,29,The Olive Branch,50333,IT,Milan,45.471,9.157,11100000
53,54,The Spice House,47732,FR,Paris,48.873,2.349,11100000
188978561028,5,The Hungry Hippo,3642,US,Enterprise,31.327,-85.836,10011000
231928234015,32,The Orange Peeler,33573,IT,Milan,45.516,9.227,11100000
206158430279,72,Flamingo Cafe,53370,GB,London,51.493,-0.127,10110101
120259084300,13,The Firehouse,59829,US,Branson,36.633,-93.272,10001111
17179869184,1,Savoria,10902,US,Arvada,-8.700,115.164,01111011
206158430236,29,The Olive Branch,53370,ES,Barcelona,41.396,2.162,11001010
180388626455,24,The Fisherman's Catch,7531,US,Hobart,42.990,-78.742,10011010
214748364810,11,The Flaming Wok,92040,US,Jellico,36.588,-84.127,10011010
214748364818,19,The Tasting Room,92040,US,Bowlinggreen,41.374,-83.608,10011010
137438953473,2,Bella Cucina,11038,US,Grand Prairie,32.784,-97.060,10001101
103079215157,54,The Spice House,4340,FR,Paris,48.847,2.283,11100000
146028888148,85,The Plum Cafe,70611,NL,Amsterdam,52.370,4.861,11100000
266287972432,81,The Oak Room,11263,GB,London,51.546,-0.055,10110101
249108103209,42,The Daily Scoop,55897,US,Tigerton,44.750,-89.066,10011010
60129542206,63,Cafe Paris,71555,GB,London,51.520,-0.158,10110101
266287972410,59,Azalea Cafe,11263,FR,Paris,48.872,2.297,11100000
257698037817,58,A Tasty Bite,26468,FR,Paris,48.871,2.343,11100000
85899345933,14,The Gourmet Garden,18952,US,Rohnert Park,38.364,-122.715,10001110
8589934639,48,The Local Cafe,12630,FR,Paris,48.875,2.326,11100000
146028888146,83,The Pantry,70611,NL,Amsterdam,52.335,4.889,11100000
266287972407,56,The Waffle House,11263,FR,Paris,48.871,2.298,11100000
77309411379,52,The Red Door,78190,FR,Paris,48.868,2.321,11100000
154618822705,50,The Pancake House,41484,AT,Vienna,48.211,16.374,11100000
154618822715,60,Big City Grill,41484,FR,Paris,48.874,2.322,11100000
249108103237,70,Earth and Vine,55897,GB,London,51.519,-0.135,10110101
197568495620,5,The Hungry Hippo,24784,US,Mobile,30.688,-88.041,10011000
85899345974,55,The Steak House,18952,GB,London,51.494,-0.188,10110101
17179869190,7,Cafe Roma,10902,US,Duluth,33.951,-84.125,10011010
137438953528,57,The Yellow Submarine,11038,GB,London,51.527,-0.132,10110101
180388626502,71,Fire and Spice,7531,NL,Amsterdam,52.368,4.868,11100000
128849018933,54,The Spice House,5679,FR,Paris,48.866,2.326,11100000
42949673014,55,The Steak House,89646,FR,Paris,48.872,2.303,11100000
120259084323,36,Blue Ocean Grill,59829,FR,Paris,48.832,2.354,11100000
128849018953,74,Garden of Eatin',5679,GB,London,51.524,-0.185,10110101
214748364865,66,City Bites,92040,GB,London,51.490,-0.138,10110101
137438953530,59,Azalea Cafe,11038,NL,Amsterdam,52.338,4.818,11100000
257698037764,5,The Hungry Hippo,26468,US,New Orleans,29.952,-90.071,10001101
188978561030,7,Cafe Roma,3642,US,Jacksonville,31.965,-95.255,10001101
171798691881,42,The Daily Scoop,65939,FR,Paris,48.846,2.324,11100000
103079215167,64,Chateau de Cuisine,4340,GB,London,51.505,-0.126,10110101
128849018920,41,The Daily Bread,5679,IT,Milan,45.502,9.222,11100000
163208757318,71,Fire and Spice,96638,GB,London,51.522,-0.153,10110101
249108103182,15,The Pearl Kitchen,55897,US,Marina,36.699,-121.806,10001110
266287972370,19,The Tasting Room,11263,US,Percival,40.690,-95.789,10001111
214748364809,10,The Golden Spoon,92040,US,El Reno,35.505,-97.973,10001111
180388626460,29,The Olive Branch,7531,US,Gaylord,44.556,-94.224,10001111
180388626464,33,The Blue Elephant,7531,IT,Milan,45.478,9.203,11100000
163208757267,20,The Brasserie,96638,US,Bellmawr,39.864,-75.078,10011010
103079215133,30,The Wine Cellar,4340,US,Drums,41.033,-75.953,10011010
171798691869,30,The Wine Cellar,65939,IT,Milan,45.469,9.195,11100000
197568495695,80,The Market Cafe,24784,GB,London,51.505,-0.099,10110101
29,30,The Wine Cellar,47732,US,Canyonville,42.944,-123.291,10001110
128849018932,53,The Red Rooster,5679,FR,Paris,48.858,2.280,11100000
197568495661,46,The Italian Table,24784,AT,Vienna,48.195,16.384,11100000
137438953483,12,The Wooden Spoon,11038,US,Denver,39.915,-104.993,10001111
17179869201,18,The Harvest Room,10902,US,Rehoboth Beach,38.717,-75.082,10011010
103079215122,19,The Tasting Room,4340,US,Emporia,36.707,-77.560,10011010
128849018912,33,The Blue Elephant,5679,US,Camden,44.202,-69.075,10011010
163208757251,4,The Blue Plate,96638,US,Vicksburg,32.314,-90.899,10001101
51539607595,44,The French Kitchen,6934,FR,Paris,48.863,2.338,11100000
94489280570,59,Azalea Cafe,95399,GB,London,51.520,-0.122,10110101
68719476739,4,The Blue Plate,77517,US,Junction,30.494,-99.778,10001101
94489280553,42,The Daily Scoop,95399,FR,Paris,48.866,2.283,11100000
146028888093,30,The Wine Cellar,70611,US,Albany,42.687,-73.815,10011010
146028888141,78,The Hot Spot,70611,GB,London,51.503,-0.152,10110101
68719476794,59,Azalea Cafe,77517,GB,London,51.516,-0.180,10110101
206158430217,10,The Golden Spoon,53370,US,Barstow,34.891,-117.003,10001110
214748364829,30,The Wine Cellar,92040,US,Eau Claire,44.844,-91.596,10001111
231928233997,14,The Gourmet Garden,33573,US,Stirling City,39.904,-121.527,10001110
206158430228,21,The Lazy Daisy,53370,US,Exton,40.362,-75.626,10011010
231928234037,54,The Spice House,33573,GB,London,51.517,-0.070,10110101
154618822690,35,Basilica Bistro,41484,US,Clare,43.830,-84.788,10011010
77309411374,47,The Juicy Burger,78190,FR,Paris,48.858,2.353,11100000
180388626481,50,The Pancake House,7531,FR,Paris,48.871,2.330,11100000
231928234003,20,The Brasserie,33573,ES,Barcelona,41.405,2.129,11001010
188978561037,14,The Gourmet Garden,3642,US,Chattanooga,34.991,-85.208,10011010
163208757286,39,Cinnamon Grill,96638,US,Spearfish,44.480,-103.814,10001111
223338299426,35,Basilica Bistro,36937,US,Jamestown,46.882,-98.715,10100101
188978561033,10,The Golden Spoon,3642,US,Hope,33.684,-93.612,10001101
163208757323,76,Happy Hour Cafe,96638,NL,Amsterdam,52.371,4.894,11100000
60129542170,27,The Corner Cafe,71555,ES,Barcelona,41.382,2.184,11001010
257698037811,52,The Red Door,26468,FR,Paris,48.864,2.341,11100000
146028888127,64,Chateau de Cuisine,70611,FR,Paris,48.861,2.379,11100000
68719476773,38,Cafe Viva,77517,US,Kalispell,48.182,-114.305,10100100
111669149697,2,Bella Cucina,84488,US,Orlando,28.407,-81.405,10011000
8589934607,16,The Spice Tree,12630,US,Burlington,39.299,-102.278,10001111
60129542197,54,The Spice House,71555,FR,Paris,48.876,2.359,11100000
60129542180,37,Cafe Crepe,71555,AT,Vienna,48.205,16.369,11100000
214748364855,56,The Waffle House,92040,FR,Paris,48.865,2.329,11100000
42949673017,58,A Tasty Bite,89646,FR,Paris,48.876,2.300,11100000
111669149703,8,The Green Olive,84488,US,Birmingham,33.520,-86.809,10011000
206158430271,64,Chateau de Cuisine,53370,FR,Paris,48.864,2.366,11100000
25769803797,22,The Red Pepper,72230,ES,Barcelona,41.392,2.162,11001010
111669149728,33,The Blue Elephant,84488,US,Brockton,42.064,-71.058,10011010
154618822683,28,The Spicy Pickle,41484,US,Narragansett,41.432,-71.462,10011010
85899345984,65,Chef's Corner,18952,GB,London,51.537,-0.002,10110101
249108103185,18,The Harvest Room,55897,US,San Francisco,37.792,-122.401,10001110
34359738440,73,Fresh Harvest,50333,NL,Amsterdam,52.354,4.866,11100000
206158430265,58,A Tasty Bite,53370,FR,Paris,48.844,2.316,11100000
249108103215,48,The Local Cafe,55897,IT,Milan,45.514,9.119,11100000
103079215170,67,Crimson and Clover,4340,GB,London,51.510,-0.188,10110101
51539607606,55,The Steak House,6934,GB,London,51.513,-0.187,10110101
94489280551,40,Crimson Cafe,95399,FR,Paris,48.838,2.306,11100000
146028888142,79,The Huckleberry Cafe,70611,GB,London,51.507,-0.129,10110101
8589934651,60,Big City Grill,12630,GB,London,51.497,-0.158,10110101
25769803816,41,The Daily Bread,72230,IT,Milan,45.466,9.192,11100000
163208757297,50,The Pancake House,96638,AT,Vienna,48.234,16.421,11100000
266287972376,25,The Cozy Cafe,11263,ES,Barcelona,41.394,2.164,11001010
188978561058,35,Basilica Bistro,3642,US,Madison,43.073,-89.440,10011010
66,67,Crimson and Clover,47732,NL,Amsterdam,52.350,4.876,11100000
146028888096,33,The Blue Elephant,70611,US,Decorah,43.292,-91.797,10001111
214748364873,74,Garden of Eatin',92040,GB,London,51.517,-0.137,10110101
60129542199,56,The Waffle House,71555,GB,London,51.474,-0.019,10110101
94489280559,48,The Local Cafe,95399,FR,Paris,48.873,2.336,11100000
188978561102,79,The Huckleberry Cafe,3642,GB,London,51.583,-0.217,10110101
180388626440,9,The Grill House,7531,US,Max Meadows,36.941,-80.944,10011010
128849018948,69,Dragonfly Cafe,5679,GB,London,51.508,-0.144,10110101
51539607577,26,The Silver Spoon,6934,US,Archbald,41.494,-75.592,10011010
171798691880,41,The Daily Bread,65939,FR,Paris,48.845,2.352,11100000
154618822669,14,The Gourmet Garden,41484,US,Franklin,35.911,-86.823,10011010
111669149716,21,The Lazy Daisy,84488,US,Bloomington,40.460,-88.977,10011010
231928234044,61,Blue Water Bistro,33573,US,Harleigh,54.153,11.754,11100000
180388626492,61,Blue Water Bistro,7531,GB,London,51.508,-0.155,10110101
85899345922,3,Spice Bazaar,18952,US,West Palm Beach,26.691,-80.073,10011000
103079215158,55,The Steak House,4340,FR,Paris,48.861,2.343,11100000
8589934638,47,The Juicy Burger,12630,FR,Paris,48.871,2.326,11100000
197568495658,43,The Food House,24784,US,Mohawk,47.415,-88.299,10110000
34359738409,42,The Daily Scoop,50333,FR,Paris,48.846,2.345,11100000
111669149708,13,The Firehouse,84488,US,Yellville,36.105,-92.611,10001111
154618822712,57,The Yellow Submarine,41484,FR,Paris,48.861,2.311,11100000
206158430241,34,The Tasty Treat,53370,US,Hampton,42.910,-70.813,10011010
42949672980,21,The Lazy Daisy,89646,ES,Barcelona,41.384,2.151,11001010
154618822708,53,The Red Rooster,41484,FR,Paris,48.853,2.330,11100000
43,44,The French Kitchen,47732,AT,Vienna,48.192,16.355,11100000
214748364845,46,The Italian Table,92040,FR,Paris 06,48.845,2.321,11100000
197568495644,29,The Olive Branch,24784,ES,Barcelona,41.391,2.159,11001010
34359738383,16,The Spice Tree,50333,ES,Barcelona,41.380,2.181,11001010
77309411341,14,The Gourmet Garden,78190,US,Bull Shoals,36.382,-92.591,10001111
171798691846,7,Cafe Roma,65939,US,Rocky Mount,35.979,-77.847,10011010
8589934632,41,The Daily Bread,12630,FR,Paris,48.847,2.326,11100000
231928234038,55,The Steak House,33573,NL,Amsterdam,52.331,4.877,11100000
266287972425,74,Garden of Eatin',11263,GB,London,51.507,0.039,11100000
214748364875,76,Happy Hour Cafe,92040,GB,London,51.524,-0.079,10110101
266287972398,47,The Juicy Burger,11263,FR,Paris,48.830,2.284,11100000
171798691877,38,Cafe Viva,65939,AT,Vienna,48.197,16.367,11100000
206158430277,70,Earth and Vine,53370,US,Raymond,50.940,6.961,11100000
188978561057,34,The Tasty Treat,3642,US,Fitchburg,42.546,-71.853,10011010
171798691892,53,The Red Rooster,65939,US,Northbrook,50.107,8.761,11100000
34359738443,76,Happy Hour Cafe,50333,NL,Amsterdam,52.365,4.884,11100000
249108103196,29,The Olive Branch,55897,ES,Barcelona,41.383,2.172,11001010
128849018942,63,Cafe Paris,5679,GB,London,51.478,-0.014,10110101
25769803827,52,The Red Door,72230,FR,Paris,48.857,2.327,11100000
8589934659,68,Delish Cafe,12630,NL,Amsterdam,52.334,4.888,11100000
60129542211,68,Delish Cafe,71555,NL,Amsterdam,52.347,4.831,11100000
85899345923,4,The Blue Plate,18952,US,Bisbee,31.443,-109.913,10001101
60129542175,32,The Orange Peeler,71555,ES,Barcelona,41.394,2.112,11001010
240518168578,3,Spice Bazaar,93164,US,Houston,29.751,-95.360,10001101
197568495660,45,The Green Bean,24784,AT,Vienna,48.183,16.332,11100000
8589934628,37,Cafe Crepe,12630,US,Yakima,46.614,-120.512,10100100
103079215150,47,The Juicy Burger,4340,IT,Milan,45.488,9.202,11100000
128849018904,25,The Cozy Cafe,5679,ES,Barcelona,41.392,2.177,11001010
266287972358,7,Cafe Roma,11263,US,Birmingham,33.529,-86.715,10011000
171798691874,35,Basilica Bistro,65939,US,Port Angeles,48.110,-123.439,10100100
25769803799,24,The Fisherman's Catch,72230,ES,Barcelona,41.394,2.165,11001010
25769803821,46,The Italian Table,72230,US,Sumner,47.202,-122.223,10100100
51539607583,32,The Orange Peeler,6934,IT,Milan,45.478,9.200,11100000
137438953529,58,A Tasty Bite,11038,GB,Woodford Green,51.607,0.059,11100000
25769803818,43,The Food House,72230,IT,Milan,45.474,9.196,11100000
128849018903,24,The Fisherman's Catch,5679,ES,Barcelona,41.391,2.168,11001010
146028888131,68,Delish Cafe,70611,FR,Paris,48.873,2.302,11100000
120259084344,57,The Yellow Submarine,59829,GB,London,51.506,-0.140,10110101
25769803807,32,The Orange Peeler,72230,US,Southfield,42.472,-83.242,10011010
163208757295,48,The Local Cafe,96638,AT,Vienna,48.167,16.345,11100000
128849018931,52,The Red Door,5679,FR,Paris,48.852,2.356,11100000
60129542178,35,Basilica Bistro,71555,IT,Milan,45.444,9.116,11100000
146028888111,48,The Local Cafe,70611,IT,Milan,45.498,9.190,11100000
17179869230,47,The Juicy Burger,10902,AT,Vienna,48.207,16.372,11100000
17179869247,64,Chateau de Cuisine,10902,FR,Paris,48.875,2.306,11100000
68719476772,37,Cafe Crepe,77517,AT,Vienna,48.179,16.363,11100000
111669149723,28,The Spicy Pickle,84488,ES,Barcelona,41.391,2.173,11001010
120259084292,5,The Hungry Hippo,59829,US,Houston,29.768,-95.460,10001101
103079215146,43,The Food House,4340,US,Pembroke,44.956,-67.169,10011011
111669149736,41,The Daily Bread,84488,FR,Paris,48.838,2.319,11100000
197568495626,11,The Flaming Wok,24784,US,Albuquerque,35.159,-106.585,10001111
231928234017,34,The Tasty Treat,33573,US,Seattle,47.661,-122.314,10100100
77309411363,36,Blue Ocean Grill,78190,US,Forest Grove,45.521,-123.078,10100100
266287972404,53,The Red Rooster,11263,FR,Paris,48.861,2.301,11100000
214748364834,35,Basilica Bistro,92040,IT,Milan,45.462,9.181,11100000
8589934653,62,Cafe Luminoso,12630,GB,London,51.505,-0.226,10110101
5,6,The Daily Grind,47732,US,Columbus,33.514,-88.426,10011000
240518168647,72,Flamingo Cafe,93164,GB,London,51.559,-0.285,10110101
85899345963,44,The French Kitchen,18952,AT,Vienna,48.216,16.360,11100000
180388626466,35,Basilica Bistro,7531,IT,Milan,45.500,9.143,11100000
25769803823,48,The Local Cafe,72230,AT,Vienna,48.206,16.378,11100000
77309411372,45,The Green Bean,78190,FR,Paris,48.852,2.374,11100000
19,20,The Brasserie,47732,ES,Barcelona,41.378,2.176,11001010
249108103221,54,The Spice House,55897,FR,Paris,48.838,2.315,11100000
231928234008,25,The Cozy Cafe,33573,US,Effingham,43.741,-71.115,10011010
68719476757,22,The Red Pepper,77517,ES,Barcelona,41.434,2.147,11001010
163208757280,33,The Blue Elephant,96638,ES,Barcelona,41.399,2.144,11001010
188978561039,16,The Spice Tree,3642,US,Gallup,35.500,-108.728,10001111
120259084321,34,The Tasty Treat,59829,AT,Vienna,48.197,16.341,11100000
266287972416,65,Chef's Corner,11263,FR,Paris,48.883,2.298,11100000
42949672992,33,The Blue Elephant,89646,US,Albert Lea,43.650,-93.369,10001111
163208757261,14,The Gourmet Garden,96638,US,Ruther Glen,37.933,-77.476,10011010
103079215108,5,The Hungry Hippo,4340,US,Gulfport,30.425,-89.093,10011000
163208757273,26,The Silver Spoon,96638,ES,Barcelona,41.368,2.190,11001010
214748364830,31,Bistro 42,92040,US,Minneapolis,44.852,-93.240,10001111
249108103190,23,The Hungry Pig,55897,US,Carnegie,40.406,-80.089,10011010
197568495637,22,The Red Pepper,24784,US,Indianapolis,39.888,-86.265,10011010
154618822718,63,Cafe Paris,41484,GB,London,51.491,-0.145,10110101
249108103226,59,Azalea Cafe,55897,FR,Paris,48.869,2.321,11100000
146028888138,75,Greenhouse Cafe,70611,GB,London,51.497,-0.168,10110101
25769803788,13,The Firehouse,72230,US,East Saint Louis,38.629,-90.175,10001111
214748364850,51,The Pizzeria,92040,FR,Paris,48.852,2.339,11100000
163208757294,47,The Juicy Burger,96638,AT,Vienna,48.154,16.283,11100000
240518168602,27,The Corner Cafe,93164,ES,Barcelona,41.380,2.143,11001010
154618822713,58,A Tasty Bite,41484,FR,Paris,48.872,2.345,11100000
249108103176,9,The Grill House,55897,US,Kiowa,34.719,-95.900,10001111
2,3,Spice Bazaar,47732,US,Hammond,30.518,-90.501,10001101
103079215130,27,The Corner Cafe,4340,US,Eagle,39.660,-106.830,10001111
180388626435,4,The Blue Plate,7531,US,San Diego,32.724,-117.168,10001100
146028888105,42,The Daily Scoop,70611,IT,Milan,45.460,9.177,11100000
180388626486,55,The Steak House,7531,GB,London,51.481,-0.007,10110101
94489280518,7,Cafe Roma,95399,US,Madisonville,35.506,-84.370,10011010
180388626482,51,The Pizzeria,7531,FR,Paris,48.874,2.320,11100000
103079215161,58,A Tasty Bite,4340,FR,Paris,48.872,2.328,11100000
128849018899,20,The Brasserie,5679,ES,Barcelona,41.379,2.156,11001010
63,64,Chateau de Cuisine,47732,GB,London,51.514,-0.157,10110101
94489280560,49,The Olive Tree,95399,FR,Paris,48.879,2.358,11100000
240518168581,6,The Daily Grind,93164,US,Tucson,32.314,-110.977,10001101
111669149733,38,Cafe Viva,84488,AT,Vienna,48.187,16.344,11100000
180388626475,44,The French Kitchen,7531,FR,Paris,48.852,2.349,11100000
206158430211,4,The Blue Plate,53370,US,Houston,29.940,-95.362,10001101
146028888066,3,Spice Bazaar,70611,US,Weslaco,26.172,-97.959,10001101
103079215149,46,The Italian Table,4340,IT,Milan,45.464,9.194,11100000
94489280567,56,The Waffle House,95399,GB,London,51.512,-0.182,10110101
197568495685,70,Earth and Vine,24784,FR,Paris,48.880,2.320,11100000
214748364806,7,Cafe Roma,92040,US,Cypress,33.832,-118.024,10001110
12,13,The Firehouse,47732,US,Athens,39.354,-81.999,10011010
146028888117,54,The Spice House,70611,AT,Vienna,48.201,16.339,11100000
120259084337,50,The Pancake House,59829,GB,London,51.494,-0.207,10110101
266287972355,4,The Blue Plate,11263,US,San Antonio,29.414,-98.710,10001101
249108103189,22,The Red Pepper,55897,US,Harrisburg,40.278,-76.821,10011010
137438953526,55,The Steak House,11038,GB,London,51.515,-0.157,10110101
180388626495,64,Chateau de Cuisine,7531,GB,London,51.518,-0.150,10110101
34359738385,18,The Harvest Room,50333,ES,Barcelona,41.401,2.210,11001010
51539607578,27,The Corner Cafe,6934,US,Woodstock,42.040,-74.121,10011010
188978561032,9,The Grill House,3642,US,Pawleys Island,33.470,-79.098,10011000
249108103186,19,The Tasting Room,55897,US,Springfield,37.957,-122.331,10001110
17179869205,22,The Red Pepper,10902,US,Jennerstown,40.164,-79.079,10011010
8589934657,66,City Bites,12630,GB,London,51.520,-0.125,10110101
51539607591,40,Crimson Cafe,6934,AT,Donauinsel,48.232,16.417,11100000
120259084328,41,The Daily Bread,59829,FR,Paris,48.860,2.323,11100000
171798691849,10,The Golden Spoon,65939,US,Sunnyvale,37.352,-122.003,10001110
171798691884,45,The Green Bean,65939,FR,Paris,48.852,2.345,11100000
266287972362,11,The Flaming Wok,11263,US,Osage Beach,38.127,-92.665,10001111
180388626447,16,The Spice Tree,7531,US,Portland,40.439,-84.994,10011010
120259084346,59,Azalea Cafe,59829,GB,London,51.511,-0.184,10110101
137438953490,19,The Tasting Room,11038,US,Cedar Rapids,42.030,-91.652,10001111
25769803846,71,Fire and Spice,72230,NL,Amsterdam,52.372,4.887,11100000
128849018918,39,Cinnamon Grill,5679,IT,Milan,45.466,9.191,11100000
68719476790,55,The Steak House,77517,GB,London,51.513,-0.100,10110101
34359738437,70,Earth and Vine,50333,GB,London,51.537,-0.192,10110101
17179869234,51,The Pizzeria,10902,FR,Paris,48.838,2.381,11100000
249108103177,10,The Golden Spoon,55897,US,Boiling Springs,35.011,-81.955,10011010
8589934600,9,The Grill House,12630,US,Ballentine,36.715,-4.426,10011111
8589934648,57,The Yellow Submarine,12630,GB,London,51.494,-0.245,10110101
111669149722,27,The Corner Cafe,84488,ES,Barcelona,41.386,2.176,11001010
197568495703,88,The Royal Cafe,24784,NL,Amsterdam,52.368,4.883,11100000
240518168595,20,The Brasserie,93164,US,Kansas City,39.309,-94.683,10001111
266287972383,32,The Orange Peeler,11263,US,Rockford,42.273,-88.967,10011010
85899345954,35,Basilica Bistro,18952,IT,Milan,45.451,9.161,11100000
111669149742,47,The Juicy Burger,84488,FR,Paris,48.867,2.286,11100000
94489280568,57,The Yellow Submarine,95399,GB,London,51.518,-0.135,10110101
56,57,The Yellow Submarine,47732,GB,London,51.420,-0.211,10110101
257698037833,74,Garden of Eatin',26468,NL,Amsterdam,52.370,4.903,11100000
128849018911,32,The Orange Peeler,5679,US,Harmony,43.561,-92.011,10001111
146028888122,59,Azalea Cafe,70611,FR,Paris,48.835,2.326,11100000
51539607584,33,The Blue Elephant,6934,IT,Milan,45.481,9.190,11100000
223338299438,47,The Juicy Burger,36937,GB,London,51.493,-0.157,10110101
25769803817,42,The Daily Scoop,72230,IT,Milan,45.467,9.143,11100000
28,29,The Olive Branch,47732,US,Sioux City,42.508,-96.374,10001111
17179869231,48,The Local Cafe,10902,AT,Vienna,48.208,16.368,11100000
68719476771,36,Blue Ocean Grill,77517,IT,Milan,45.512,9.124,11100000
77309411394,67,Crimson and Clover,78190,GB,London,51.519,-0.132,10110101
120259084288,1,Savoria,59829,US,Miami,25.764,-80.266,10011000
128849018916,37,Cafe Crepe,5679,IT,Milan,45.452,9.205,11100000
137438953507,36,Blue Ocean Grill,11038,AT,Vienna,48.196,16.396,11100000
171798691886,47,The Juicy Burger,65939,FR,Paris,48.862,2.341,11100000
163208757305,58,A Tasty Bite,96638,FR,Paris,48.870,2.297,11100000
163208757262,15,The Pearl Kitchen,96638,US,Sainte Genevieve,37.968,-90.057,10001111
163208757256,9,The Grill House,96638,US,Robinsonville,34.819,-90.412,10001111
197568495697,82,The Palate,24784,GB,London,51.510,-0.191,10110101
240518168576,1,Savoria,93164,US,Bristol,19.435,-99.147,10000111
60129542201,58,A Tasty Bite,71555,GB,London,51.509,-0.016,10110101
51539607596,45,The Green Bean,6934,FR,Paris,48.865,2.305,11100000
257698037777,18,The Harvest Room,26468,US,Garberville,40.102,-123.794,10001110
111669149745,50,The Pancake House,84488,FR,Paris,48.871,2.361,11100000
42949672975,16,The Spice Tree,89646,US,Fort Bragg,39.426,-123.803,10001110
77309411397,70,Earth and Vine,78190,US,Juneau,58.300,-134.406,10100110
146028888150,87,The Red Hen,70611,US,East Hickory,52.674,13.569,11100000
17179869228,45,The Green Bean,10902,AT,Vienna,48.203,16.367,11100000
163208757296,49,The Olive Tree,96638,AT,Vienna,48.202,16.379,11100000
257698037760,1,Savoria,26468,US,Fort Lauderdale,26.174,-80.100,10011000
223338299448,57,The Yellow Submarine,36937,NL,Amsterdam,52.292,4.944,11100000
180388626501,70,Earth and Vine,7531,NL,Amsterdam,52.366,4.899,11100000
188978561068,45,The Green Bean,3642,US,Mobridge,45.537,-100.424,10100101
42949673011,52,The Red Door,89646,FR,Paris,48.869,2.337,11100000
146028888102,39,Cinnamon Grill,70611,US,Shakopee,44.801,-93.509,10001111
94489280547,36,Blue Ocean Grill,95399,US,Spearfish,44.476,-103.848,10001111
8589934634,43,The Food House,12630,FR,Paris,48.864,2.369,11100000
180388626448,17,The Rustic Table,7531,ES,El Prat de Llobregat,41.328,2.113,11001010
188978561082,59,Azalea Cafe,3642,FR,Paris,48.854,2.340,11100000
77309411356,29,The Olive Branch,78190,US,Saginaw,43.484,-83.969,10011010
77309411348,21,The Lazy Daisy,78190,US,Columbia,38.961,-92.289,10001111
163208757272,25,The Cozy Cafe,96638,US,Wilmington,41.346,-88.196,10011010
94489280522,11,The Flaming Wok,95399,US,Metropolis,37.162,-88.691,10011010
60129542190,47,The Juicy Burger,71555,FR,Paris,48.863,2.353,11100000
146028888123,60,Big City Grill,70611,FR,Paris,48.845,2.342,11100000
77309411355,28,The Spicy Pickle,78190,ES,Barcelona,41.396,2.161,11001010
197568495680,65,Chef's Corner,24784,FR,Paris,48.869,2.331,11100000
146028888068,5,The Hungry Hippo,70611,US,Austin,30.416,-97.744,10001101
146028888132,69,Dragonfly Cafe,70611,FR,Paris,48.873,2.354,11100000
103079215160,57,The Yellow Submarine,4340,FR,Paris,48.867,2.337,11100000
154618822672,17,The Rustic Table,41484,US,Rockaway Beach,36.705,-93.150,10001111
51539607558,7,Cafe Roma,6934,US,Inglewood,33.970,-118.356,10001110
8589934592,1,Savoria,12630,US,Marathon,24.712,-81.081,10011000
188978561090,67,Crimson and Clover,3642,FR,Paris,48.875,2.305,11100000
197568495694,79,The Huckleberry Cafe,24784,GB,London,51.496,-0.145,10110101
188978561097,74,Garden of Eatin',3642,GB,Paddington,51.521,-0.171,10110101
180388626442,11,The Flaming Wok,7531,US,Livermore,37.698,-121.774,10001110
34359738411,44,The French Kitchen,50333,FR,Paris,48.849,2.348,11100000
120259084338,51,The Pizzeria,59829,GB,London,51.498,-0.146,10110101
257698037789,30,The Wine Cellar,26468,US,Cody,44.517,-109.084,10001111
197568495633,18,The Harvest Room,24784,US,Castle Rock,39.409,-104.867,10001111
60129542212,69,Dragonfly Cafe,71555,NL,Amsterdam,52.349,4.884,11100000
15,16,The Spice Tree,47732,US,Steamboat Springs,40.460,-106.804,10001111
25769803806,31,Bistro 42,72230,US,Erie,42.047,-80.080,10011010
266287972372,21,The Lazy Daisy,11263,US,Kankakee,41.093,-87.869,10011010
51539607579,28,The Spicy Pickle,6934,US,Byron Center,42.825,-85.669,10011010
8589934595,4,The Blue Plate,12630,US,Santa Maria,34.940,-120.436,10001110
77309411377,50,The Pancake House,78190,FR,Paris,48.865,2.335,11100000
42949673025,66,City Bites,89646,GB,London,51.522,-0.047,10110101
240518168629,54,The Spice House,93164,AT,Vienna,48.211,16.384,11100000
154618822660,5,The Hungry Hippo,41484,US,Bunkie,30.953,-92.185,10001101
85899345956,37,Cafe Crepe,18952,IT,Milan,45.463,9.198,11100000
51539607587,36,Blue Ocean Grill,6934,US,Woodland,45.907,-122.740,10100100
206158430275,68,Delish Cafe,53370,FR,Paris,48.876,2.357,11100000
197568495669,54,The Spice House,24784,FR,Paris,48.849,2.341,11100000
231928234002,19,The Tasting Room,33573,ES,Barcelona,41.390,2.175,11001010
94489280566,55,The Steak House,95399,GB,London,51.501,-0.163,10110101
8589934643,52,The Red Door,12630,FR,Paris,48.887,2.333,11100000
223338299403,12,The Wooden Spoon,36937,US,Norwood,38.159,-108.241,10001111
103079215164,61,Blue Water Bistro,4340,GB,London,51.492,-0.196,10110101
257698037761,2,Bella Cucina,26468,US,Pharr,26.218,-98.179,10001101
223338299431,40,Crimson Cafe,36937,FR,Paris,48.871,2.328,11100000
17179869241,58,A Tasty Bite,10902,FR,Paris,48.855,2.325,11100000
188978561051,28,The Spicy Pickle,3642,ES,Barcelona,41.383,2.171,11001010
111669149711,16,The Spice Tree,84488,US,Sacramento,38.580,-121.494,10001110
214748364805,6,The Daily Grind,92040,US,Palm Springs,33.803,-116.543,10001110
34359738384,17,The Rustic Table,50333,ES,Barcelona,41.388,2.167,11001010
223338299449,58,A Tasty Bite,36937,NL,Amsterdam,52.354,4.888,11100000
103079215114,11,The Flaming Wok,4340,US,Atlanta,33.843,-84.315,10011010
25769803836,61,Blue Water Bistro,72230,GB,London,51.512,-0.186,10110101
94489280564,53,The Red Rooster,95399,GB,London,51.496,-0.181,10110101
188978561094,71,Fire and Spice,3642,GB,London,51.505,-0.219,10110101
137438953474,3,Spice Bazaar,11038,US,Buena Park,33.858,-118.029,10001110
188978561069,46,The Italian Table,3642,AT,Vienna,48.193,16.358,11100000
231928234019,36,Blue Ocean Grill,33573,AT,Vienna,48.204,16.356,11100000
17179869222,39,Cinnamon Grill,10902,IT,Milan,45.466,9.178,11100000
17179869237,54,The Spice House,10902,FR,Paris,48.849,2.342,11100000
85899345942,23,The Hungry Pig,18952,ES,Barcelona,41.383,2.140,11001010
257698037808,49,The Olive Tree,26468,FR,Paris,48.848,2.302,11100000
163208757259,12,The Wooden Spoon,96638,US,Dublin,37.073,-80.697,10011010
42949673012,53,The Red Rooster,89646,FR,Paris,48.870,2.311,11100000
25769803839,64,Chateau de Cuisine,72230,GB,London,51.522,-0.086,10110101
214748364854,55,The Steak House,92040,FR,Paris,48.864,2.331,11100000
240518168634,59,Azalea Cafe,93164,FR,Paris,48.856,2.293,11100000
34359738444,77,Harvest Kitchen,50333,NL,Amsterdam,52.392,4.868,11100000
206158430289,82,The Palate,53370,GB,London,51.510,-0.076,10110101
171798691883,44,The French Kitchen,65939,FR,Paris,48.852,2.278,11100000
17179869259,76,Happy Hour Cafe,10902,GB,London,51.513,-0.117,10110101
60129542174,31,Bistro 42,71555,ES,Barcelona,41.389,2.121,11001010
180388626471,40,Crimson Cafe,7531,AT,Vienna,48.205,16.377,11100000
42949672974,15,The Pearl Kitchen,89646,US,Saint Leonard,38.475,-76.507,10011010
240518168643,68,Delish Cafe,93164,GB,London,51.513,-0.184,10110101
231928233996,13,The Firehouse,33573,US,Colorado Springs,38.916,-104.824,10001111
137438953498,27,The Corner Cafe,11038,IT,Milan,45.468,9.155,11100000
68719476765,30,The Wine Cellar,77517,IT,Milan,45.441,9.173,11100000
85899345951,32,The Orange Peeler,18952,US,Milwaukee,43.039,-87.906,10011010
34359738375,8,The Green Olive,50333,US,Alamosa,37.471,-105.860,10001111
249108103230,63,Cafe Paris,55897,GB,London,51.492,-0.183,10110101
41,42,The Daily Scoop,47732,AT,Vienna,48.159,16.345,11100000
85899345940,21,The Lazy Daisy,18952,US,Bowling Green,41.375,-83.619,10011010
223338299420,29,The Olive Branch,36937,US,Washington,45.427,9.072,11100000
171798691889,50,The Pancake House,65939,FR,Paris,48.882,2.336,11100000
103079215121,18,The Harvest Room,4340,US,Mount Airy,36.481,-80.602,10011010
154618822678,23,The Hungry Pig,41484,ES,Barcelona,41.383,2.170,11001010
8589934624,33,The Blue Elephant,12630,US,Burnsville,44.769,-93.291,10001111
206158430283,76,Happy Hour Cafe,53370,GB,London,51.499,-0.192,10110101
111669149738,43,The Food House,84488,FR,Paris,48.849,2.296,11100000
231928234004,21,The Lazy Daisy,33573,ES,Barcelona,41.405,2.212,11001010
34359738379,12,The Wooden Spoon,50333,US,Crystal Bay,39.225,-120.006,10001110
171798691904,65,Chef's Corner,65939,GB,London,51.540,-0.146,10110101
214748364867,68,Delish Cafe,92040,GB,London,51.496,-0.169,10110101
223338299411,20,The Brasserie,36937,ES,Barcelona,41.386,2.129,11001010
60129542164,21,The Lazy Daisy,71555,US,Towson,39.407,-76.601,10011010
257698037767,8,The Green Olive,26468,US,Douglasville,33.751,-84.716,10011010
94489280561,50,The Pancake House,95399,FR,Paris,48.881,2.299,11100000
163208757322,75,Greenhouse Cafe,96638,NL,Amsterdam,52.369,4.887,11100000
214748364851,52,The Red Door,92040,FR,Paris,48.854,2.336,11100000
163208757270,23,The Hungry Pig,96638,US,Bellefonte,40.883,-77.780,10011010
17179869194,11,The Flaming Wok,10902,US,Hot Springs National Park,34.498,-93.057,10001111
197568495662,47,The Juicy Burger,24784,AT,Vienna,48.202,16.371,11100000
154618822656,1,Savoria,41484,US,Key West,24.547,-81.794,10011000
137438953514,43,The Food House,11038,FR,Paris,48.855,2.369,11100000
85899345939,20,The Brasserie,18952,US,Wapello,41.175,-91.190,10001111
103079215144,41,The Daily Bread,4340,US,Random Lake,43.559,-87.940,10011010
51539607589,38,Cafe Viva,6934,AT,Vienna,48.191,16.408,11100000
120259084312,25,The Cozy Cafe,59829,US,Douglas,42.678,-105.333,10001111
85899345947,28,The Spicy Pickle,18952,US,Coralville,41.701,-91.607,10001111
240518168617,42,The Daily Scoop,93164,US,Worthington,43.629,-95.581,10001111
128849018925,46,The Italian Table,5679,FR,Paris,48.830,2.353,11100000
128849018924,45,The Green Bean,5679,AT,Vienna,48.198,16.367,11100000
197568495618,3,Spice Bazaar,24784,US,Englewood,26.935,-82.319,10011000
8589934646,55,The Steak House,12630,GB,London,51.424,-0.229,10110101
25769803834,59,Azalea Cafe,72230,FR,Paris,48.880,2.334,11100000
257698037787,28,The Spicy Pickle,26468,US,Interior,43.738,-101.965,10001111
257698037770,11,The Flaming Wok,26468,US,Memphis,35.036,-89.799,10011010
163208757278,31,Bistro 42,96638,ES,Barcelona,41.390,2.126,11001010
240518168608,33,The Blue Elephant,93164,ES,Barcelona,41.405,2.173,11001010
214748364832,33,The Blue Elephant,92040,IT,Milan,45.451,9.195,11100000
34359738404,37,Cafe Crepe,50333,AT,Vienna,48.210,16.370,11100000
120259084298,11,The Flaming Wok,59829,US,Palm Springs,33.841,-116.545,10001110
25769803809,34,The Tasty Treat,72230,US,Grand Rapids,42.909,-85.574,10011010
8589934621,30,The Wine Cellar,12630,US,Humeston,43.772,11.251,11001010
266287972363,12,The Wooden Spoon,11263,US,Brandywine,38.669,-76.876,10011010
60129542191,48,The Local Cafe,71555,FR,Paris,48.864,2.332,11100000
214748364859,60,Big City Grill,92040,FR,Paris,48.869,2.325,11100000
17179869239,56,The Waffle House,10902,FR,Paris,48.854,2.381,11100000
25769803826,51,The Pizzeria,72230,FR,Paris,48.856,2.362,11100000
94489280541,30,The Wine Cellar,95399,US,Narragansett,41.428,-71.456,10011010
8589934602,11,The Flaming Wok,12630,US,Dodge City,37.754,-100.041,10001111
44,45,The Green Bean,47732,AT,Vienna,48.198,16.348,11100000
34359738390,23,The Hungry Pig,50333,US,Saint Paul,44.971,-93.155,10001111
231928234022,39,Cinnamon Grill,33573,US,Whitefish,48.391,-114.336,10100100
154618822673,18,The Harvest Room,41484,US,Licking,37.461,-91.988,10001111
128849018952,73,Fresh Harvest,5679,GB,London,51.513,-0.180,10110101
34359738426,59,Azalea Cafe,50333,GB,London,51.470,-0.178,10110101
17179869196,13,The Firehouse,10902,US,Cary,35.733,-78.790,10011010
223338299404,13,The Firehouse,36937,US,Lake Ozark,38.206,-92.665,10001111
249108103212,45,The Green Bean,55897,IT,Milan,45.477,9.197,11100000
60129542194,51,The Pizzeria,71555,FR,Paris,48.871,2.309,11100000
206158430278,71,Fire and Spice,53370,GB,London,51.492,-0.195,10110101
51539607592,41,The Daily Bread,6934,AT,Vienna,48.251,16.305,11100000
111669149737,42,The Daily Scoop,84488,FR,Paris,48.840,2.324,11100000
111669149705,10,The Golden Spoon,84488,US,Irmo,34.091,-81.161,10011010
34359738369,2,Bella Cucina,50333,US,Pleasanton,28.967,-98.479,10001101
42949673015,56,The Waffle House,89646,FR,Paris,48.873,2.319,11100000
85899345970,51,The Pizzeria,18952,FR,Paris,48.870,2.335,11100000
94489280534,23,The Hungry Pig,95399,ES,Barcelona,41.381,2.127,11001010
68719476791,56,The Waffle House,77517,GB,Paddington,51.514,-0.180,10110101
214748364852,53,The Red Rooster,92040,FR,Paris,48.859,2.308,11100000
249108103220,53,The Red Rooster,55897,FR,Paris,48.833,2.357,11100000
206158430259,52,The Red Door,53370,AT,Vienna,48.200,16.377,11100000
34359738423,56,The Waffle House,50333,FR,Paris,48.879,2.356,11100000
206158430216,9,The Grill House,53370,US,Canton,34.255,-84.464,10011010
249108103235,68,Delish Cafe,55897,GB,London,51.514,-0.085,10110101
188978561100,77,Harvest Kitchen,3642,GB,London,51.527,-0.136,10110101
30,31,Bistro 42,47732,US,Herkimer,43.019,-74.993,10011010
171798691902,63,Cafe Paris,65939,GB,London,51.521,-0.157,10110101
214748364812,13,The Firehouse,92040,US,Ridgefield Park,39.378,3.237,11001010
103079215142,39,Cinnamon Grill,4340,US,Albany,42.718,-73.834,10011010
48,49,The Olive Tree,47732,FR,Paris,48.858,2.357,11100000
47,48,The Local Cafe,47732,FR,Paris,48.850,2.339,11100000
94489280536,25,The Cozy Cafe,95399,ES,Barcelona,41.391,2.167,11001010
180388626483,52,The Red Door,7531,FR,Paris,48.874,2.336,11100000
60129542179,36,Blue Ocean Grill,71555,IT,Milan,45.481,9.204,11100000
257698037800,41,The Daily Bread,26468,AT,Vienna,48.215,16.337,11100000
146028888126,63,Cafe Paris,70611,FR,Paris,48.857,2.317,11100000
85899345935,16,The Spice Tree,18952,US,Springfield,38.776,-77.179,10011010
85899345946,27,The Corner Cafe,18952,US,West Yarmouth,41.655,-70.256,10011010
188978561070,47,The Juicy Burger,3642,AT,Vienna,48.203,16.356,11100000
206158430226,19,The Tasting Room,53370,US,Ocean City,39.276,-74.576,10011010
188978561071,48,The Local Cafe,3642,AT,Vienna,48.206,16.377,11100000
231928233998,15,The Pearl Kitchen,33573,US,Coalville,40.911,-111.403,10001111
214748364804,5,The Hungry Hippo,92040,US,Summerton,33.592,-80.357,10011000
85899345981,62,Cafe Luminoso,18952,GB,London,51.519,-0.183,10110101
34359738441,74,Garden of Eatin',50333,NL,Amsterdam,52.356,4.886,11100000
214748364824,25,The Cozy Cafe,92040,US,Schenectady,42.764,-73.939,10011010
240518168636,61,Blue Water Bistro,93164,FR,Paris,48.868,2.329,11100000
25769803814,39,Cinnamon Grill,72230,US,Rangeley,44.966,-70.643,10011010
214748364862,63,Cafe Paris,92040,FR,Paris,48.880,2.286,11100000
25769803844,69,Dragonfly Cafe,72230,NL,Amsterdam,52.365,4.885,11100000
77309411387,60,Big City Grill,78190,GB,London,51.495,-0.177,10110101
188978561067,44,The French Kitchen,3642,US,Troutdale,45.537,-122.421,10100100
206158430284,77,Harvest Kitchen,53370,GB,London,51.500,-0.162,10110101
154618822725,70,Earth and Vine,41484,GB,London,51.506,-0.151,10110101
85899345982,63,Cafe Paris,18952,GB,London,51.519,-0.154,10110101
266287972388,37,Cafe Crepe,11263,IT,Milan,45.464,9.196,11100000
8589934625,34,The Tasty Treat,12630,US,Big Sky,45.286,-111.393,10100101
188978561065,42,The Daily Scoop,3642,IT,Milan,45.480,9.213,11100000
85899345979,60,Big City Grill,18952,GB,London,51.515,-0.127,10110101
171798691854,15,The Pearl Kitchen,65939,US,Redding,40.599,-122.384,10001110
249108103183,16,The Spice Tree,55897,US,Durango,37.296,-107.873,10001111
266287972405,54,The Spice House,11263,FR,Paris,48.869,2.298,11100000
197568495664,49,The Olive Tree,24784,AT,Vienna,48.202,16.376,11100000
154618822658,3,Spice Bazaar,41484,US,Alliance,27.722,85.356,11001101
240518168621,46,The Italian Table,93164,IT,Milan,45.453,9.179,11100000
77309411393,66,City Bites,78190,GB,London,51.517,-0.122,10110101
17179869209,26,The Silver Spoon,10902,ES,Barcelona,41.396,2.201,11001010
103079215139,36,Blue Ocean Grill,4340,US,Burwell,41.782,-99.126,10001111
163208757274,27,The Corner Cafe,96638,ES,Barcelona,41.373,2.172,11001010
240518168606,31,Bistro 42,93164,ES,Barcelona,41.390,2.180,11001010
240518168619,44,The French Kitchen,93164,US,Rangeley,44.965,-70.643,10011010
171798691888,49,The Olive Tree,65939,FR,Paris,48.869,2.361,11100000
223338299436,45,The Green Bean,36937,GB,London,51.482,-0.148,10110101
240518168632,57,The Yellow Submarine,93164,FR,Paris,48.851,2.275,11100000
266287972387,36,Blue Ocean Grill,11263,US,Enterprise,45.423,-117.298,10100100
180388626444,13,The Firehouse,7531,US,Corydon,38.233,-86.133,10011010
68719476795,60,Big City Grill,77517,GB,London,51.516,-0.160,10110101
180388626433,2,Bella Cucina,7531,US,Van Horn,29.672,-95.038,10001101
68719476756,21,The Lazy Daisy,77517,ES,Barcelona,41.410,2.170,11001010
171798691891,52,The Red Door,65939,FR,Paris,48.884,2.319,11100000
240518168623,48,The Local Cafe,93164,IT,Milan,45.479,9.199,11100000
223338299413,22,The Red Pepper,36937,ES,Barcelona,41.389,2.165,11001010
154618822730,75,Greenhouse Cafe,41484,GB,London,51.513,-0.076,10110101
188978561027,4,The Blue Plate,3642,US,Sulphur,30.214,-93.327,10001101
180388626496,65,Chef's Corner,7531,GB,London,51.518,-0.128,10110101
77309411345,18,The Harvest Room,78190,US,Berea,37.617,-84.346,10011010
197568495701,86,The Porch Cafe,24784,GB,London,51.522,-0.108,10110101
257698037772,13,The Firehouse,26468,US,Corte Madera,37.930,-122.518,10001110
120259084304,17,The Rustic Table,59829,US,Strasburg,39.972,-76.151,10011010
51539607559,8,The Green Olive,6934,US,Albuquerque,35.100,-106.668,10001111
266287972368,17,The Rustic Table,11263,US,Finleyville,40.252,-80.004,10011010
197568495628,13,The Firehouse,24784,US,Springdale,36.170,-94.184,10001111
68719476783,48,The Local Cafe,77517,FR,Paris,48.875,2.317,11100000
128849018906,27,The Corner Cafe,5679,ES,Barcelona,41.402,2.148,11001010
137438953489,18,The Harvest Room,11038,ES,Barcelona,41.403,2.137,11001010
266287972413,62,Cafe Luminoso,11263,FR,Paris,48.877,2.343,11100000
163208757292,45,The Green Bean,96638,US,Grand Rapids,47.235,-93.518,10100101
154618822665,10,The Golden Spoon,41484,US,Santa Barbara,34.429,-119.708,10001110
171798691868,29,The Olive Branch,65939,IT,Milan,45.468,9.207,11100000
206158430249,42,The Daily Scoop,53370,IT,Milan,45.464,9.195,11100000
34359738407,40,Crimson Cafe,50333,AT,Vienna,48.214,16.371,11100000
25769803779,4,The Blue Plate,72230,US,Griffin,33.287,-84.292,10011000
120259084309,22,The Red Pepper,59829,ES,Barcelona,41.391,2.171,11001010
197568495652,37,Cafe Crepe,24784,IT,Milan,45.477,9.184,11100000
223338299408,17,The Rustic Table,36937,US,Columbus,40.114,-83.012,10011010
240518168649,74,Garden of Eatin',93164,NL,Amsterdam,52.363,4.878,11100000
214748364801,2,Bella Cucina,92040,US,Opelousas,30.515,-92.071,10001101
111669149721,26,The Silver Spoon,84488,ES,Barcelona,41.385,2.138,11001010
111669149709,14,The Gourmet Garden,84488,US,Monterey,36.601,-121.896,10001110
137438953484,13,The Firehouse,11038,US,Fort Collins,40.583,-105.008,10001111
231928233993,10,The Golden Spoon,33573,US,St. Robert,37.823,-92.141,10001111
240518168607,32,The Orange Peeler,93164,ES,Barcelona,41.394,2.168,11001010
17179869257,74,Garden of Eatin',10902,GB,London,51.510,-0.155,10110101
103079215166,63,Cafe Paris,4340,GB,London,51.499,-0.143,10110101
188978561083,60,Big City Grill,3642,FR,Paris,48.862,2.362,11100000
137438953508,37,Cafe Crepe,11038,AT,Vienna,48.208,16.353,11100000
60129542213,70,Earth and Vine,71555,NL,Amsterdam,52.359,4.926,11100000
111669149725,30,The Wine Cellar,84488,ES,Barcelona,41.407,2.144,11001010
180388626477,46,The Italian Table,7531,FR,Paris,48.860,2.318,11100000
240518168614,39,Cinnamon Grill,93164,US,American Falls,42.776,-112.859,10001110
171798691875,36,Blue Ocean Grill,65939,AT,Vienna,48.192,16.399,11100000
111669149753,58,A Tasty Bite,84488,GB,London,51.509,-0.142,10110101
180388626463,32,The Orange Peeler,7531,IT,Milan,45.447,9.209,11100000
188978561076,53,The Red Rooster,3642,AT,Vienna,48.224,16.314,11100000
214748364839,40,Crimson Cafe,92040,AT,Vienna,48.185,16.405,11100000
94489280527,16,The Spice Tree,95399,US,Reston,38.959,-77.356,10011010
154618822659,4,The Blue Plate,41484,US,Floresville,29.143,-98.155,10001101
40,41,The Daily Bread,47732,US,Saint Cloud,45.561,-94.156,10100101
137438953482,11,The Flaming Wok,11038,US,Lanham,38.961,-76.862,10011010
180388626467,36,Blue Ocean Grill,7531,IT,Milan,45.502,9.228,11100000
266287972397,46,The Italian Table,11263,US,Columbia Falls,48.364,-114.152,10100100
223338299410,19,The Tasting Room,36937,US,North Platte,41.135,-100.757,10001111
68719476764,29,The Olive Branch,77517,IT,Milan,45.438,9.231,11100000
240518168589,14,The Gourmet Garden,93164,US,Bryson City,35.340,-83.560,10011010
266287972400,49,The Olive Tree,11263,FR,Paris,48.850,2.324,11